{"type":"FeatureCollection","name":"ne_10m_admin_0_countries_subset","features":[{"type":"Feature","properties":{"ADMIN":"United Arab Emirates","NAME":"United Arab Emirates","ADM0_A3":"ARE","ISO_A3":"ARE","ISO_A3_EH":"ARE","CONTINENT":"Asia","SUBREGION":"Western Asia","TYPE":"Sovereign country","SOVEREIGNT":"United Arab Emirates"},"geometry":{"type":"MultiPolygon","coordinates":[[[[56.279055,25.627446],[56.300304,25.616156],[56.323253,25.607815],[56.340017,25.60456],[56.347992,25.593085],[56.369965,25.525702],[56.36378,25.433254],[56.365001,25.423163],[56.368337,25.396308],[56.366954,25.388861],[56.359223,25.37641],[56.360199,25.367255],[56.369965,25.351304],[56.374685,25.341213],[56.379161,25.334621],[56.382498,25.32685],[56.382986,25.321275],[56.383637,25.313463],[56.38266,25.302232],[56.378429,25.28262],[56.375255,25.252753],[56.365977,25.209215],[56.362234,25.068264],[56.36199,25.057278],[56.383311,24.978217],[56.328995,24.972689],[56.324451,24.967939],[56.31928,24.962534],[56.316053,24.929912],[56.314278,24.911962],[56.313596,24.90507],[56.308325,24.895174],[56.280316,24.876984],[56.274683,24.871949],[56.241662,24.842438],[56.223679,24.83448],[56.186265,24.830243],[56.171366,24.824069],[56.171176,24.82399],[56.154846,24.786705],[56.133348,24.762831],[56.127251,24.7457],[56.118259,24.735416],[56.099139,24.730507],[56.077951,24.729758],[56.07627,24.729972],[56.062138,24.731773],[56.031546,24.754149],[56.00209,24.823008],[55.96478,24.853859],[55.957649,24.868664],[55.960852,24.881247],[55.978422,24.886105],[55.992375,24.883004],[56.005294,24.876984],[56.029272,24.861171],[56.025252,24.882562],[56.016973,24.926619],[56.005604,24.956178],[55.978422,24.971759],[55.975873,24.972112],[55.935428,24.977727],[55.89698,24.968606],[55.862151,24.948452],[55.857826,24.944851],[55.829388,24.921167],[55.799105,24.886105],[55.788667,24.855202],[55.797038,24.778359],[55.797038,24.759549],[55.792697,24.722291],[55.794764,24.70392],[55.799981,24.693258],[55.814918,24.662733],[55.818226,24.643381],[55.790217,24.619868],[55.784016,24.58633],[55.76996,24.572403],[55.759831,24.558528],[55.761175,24.537444],[55.77368,24.49525],[55.771407,24.441093],[55.774611,24.4259],[55.781019,24.418872],[55.801069,24.40647],[55.808614,24.397633],[55.810887,24.389236],[55.807373,24.340789],[55.800966,24.326268],[55.762105,24.262965],[55.754147,24.245472],[55.755697,24.230331],[55.767686,24.224879],[55.830318,24.21227],[55.847164,24.211417],[55.903182,24.232243],[55.933154,24.220719],[55.948967,24.18483],[55.960749,24.142429],[55.997853,24.08127],[55.986794,24.06538],[55.923542,24.051143],[55.807063,24.007476],[55.78846,24.009569],[55.762415,24.028147],[55.744432,24.025279],[55.727998,24.019594],[55.712599,24.019233],[55.680043,24.024271],[55.646866,24.02502],[55.618341,24.020137],[55.591056,24.010008],[55.561704,23.995229],[55.542273,23.985436],[55.499795,23.970605],[55.456801,23.963164],[55.45277,23.948565],[55.461555,23.930556],[55.478298,23.916577],[55.514575,23.896605],[55.530595,23.874668],[55.535142,23.845884],[55.538346,23.770049],[55.534109,23.756768],[55.487393,23.693258],[55.478298,23.67636],[55.445328,23.552259],[55.431479,23.532932],[55.394169,23.495285],[55.393962,23.495182],[55.375255,23.469344],[55.364093,23.436012],[55.343216,23.336277],[55.321098,23.275092],[55.22591,23.121251],[55.194801,23.025081],[55.191287,22.995471],[55.191287,22.995368],[55.197592,22.849459],[55.186843,22.703577],[55.120387,22.623426],[55.105297,22.620946],[54.968562,22.637741],[54.829449,22.654897],[54.690336,22.671951],[54.551326,22.689004],[54.41242,22.70616],[54.273307,22.723265],[54.134297,22.740319],[53.995288,22.757449],[53.856071,22.77458],[53.717062,22.791685],[53.578052,22.808764],[53.438939,22.825869],[53.29993,22.842974],[53.16092,22.860053],[53.021807,22.877132],[52.882797,22.894237],[52.743788,22.911342],[52.583074,22.931108],[52.558476,22.938575],[52.538477,22.95475],[52.484837,23.018338],[52.432644,23.080375],[52.380503,23.142413],[52.328309,23.20445],[52.276271,23.26641],[52.224078,23.328422],[52.171988,23.390486],[52.119795,23.452523],[52.067705,23.514483],[52.015512,23.576495],[51.963422,23.638558],[51.911229,23.700518],[51.859036,23.76253],[51.806842,23.82449],[51.754753,23.886553],[51.702559,23.948591],[51.65047,24.010603],[51.593522,24.078325],[51.578536,24.101837],[51.573162,24.127831],[51.575229,24.191935],[51.575539,24.217722],[51.569347,24.256171],[51.590668,24.28441],[51.591645,24.328599],[51.573985,24.364447],[51.593761,24.384914],[51.602387,24.367906],[51.62379,24.339342],[51.62794,24.319729],[51.62794,24.26203],[51.634451,24.226874],[51.648692,24.218573],[51.662934,24.232815],[51.672618,24.278062],[51.679373,24.265774],[51.689301,24.234687],[51.695974,24.224351],[51.700694,24.22191],[51.709809,24.221096],[51.718272,24.22309],[51.723643,24.227769],[51.724864,24.232571],[51.720876,24.234687],[51.740082,24.277533],[51.7588,24.290513],[51.77947,24.26203],[51.782237,24.240383],[51.771983,24.176337],[51.773448,24.153225],[51.785655,24.103746],[51.786794,24.093004],[51.785655,24.059312],[51.787771,24.04857],[51.79713,24.028225],[51.799164,24.018378],[51.809418,24.000678],[51.833263,23.99494],[51.881847,23.993883],[51.893565,23.990383],[51.902517,23.985663],[51.919688,23.970364],[51.928722,23.964748],[51.936371,23.964748],[51.939138,23.969184],[51.93336,23.977118],[51.931407,23.987982],[51.952891,23.990912],[52.01002,23.98786],[52.016938,23.989691],[52.023936,23.98786],[52.036388,23.977118],[52.067393,23.963446],[52.075694,23.963813],[52.117931,23.970893],[52.13559,23.966539],[52.145518,23.971991],[52.155528,23.966539],[52.171072,23.973375],[52.188243,23.97427],[52.206309,23.973131],[52.224376,23.974026],[52.240977,23.979641],[52.279063,24.00137],[52.295909,24.00373],[52.32781,24.003852],[52.341075,24.007514],[52.35255,24.016343],[52.364757,24.027899],[52.378103,24.037991],[52.392345,24.042304],[52.408865,24.045233],[52.428071,24.052639],[52.444184,24.06269],[52.450938,24.07331],[52.456554,24.084662],[52.48699,24.096625],[52.501801,24.107489],[52.514985,24.119818],[52.532481,24.131822],[52.550059,24.141059],[52.56365,24.144721],[52.574555,24.152086],[52.577647,24.169013],[52.577973,24.187445],[52.58074,24.199368],[52.600271,24.20954],[52.618419,24.203681],[52.634125,24.189887],[52.670095,24.144721],[52.681326,24.140815],[52.685395,24.143459],[52.68865,24.148586],[52.697439,24.152167],[52.720063,24.151516],[52.760997,24.140611],[52.782725,24.137885],[52.795421,24.139879],[52.816905,24.149319],[52.827647,24.152167],[52.839203,24.152004],[52.84783,24.149604],[52.854747,24.146674],[52.86199,24.144721],[52.947113,24.137885],[52.956716,24.139635],[52.992198,24.152167],[52.996918,24.155911],[52.998302,24.161363],[52.999766,24.165676],[53.00587,24.165839],[53.010997,24.162787],[53.014822,24.158433],[53.017589,24.154364],[53.019542,24.152167],[53.048839,24.12995],[53.067231,24.121894],[53.107188,24.137885],[53.127696,24.130683],[53.146495,24.121324],[53.163422,24.124823],[53.149669,24.132229],[53.145763,24.14175],[53.145356,24.153062],[53.142426,24.165839],[53.165294,24.170315],[53.19158,24.15941],[53.215587,24.141547],[53.231781,24.124823],[53.245616,24.104153],[53.253754,24.098782],[53.309093,24.095771],[53.437022,24.119818],[53.445811,24.119818],[53.4546,24.114407],[53.468272,24.100328],[53.47877,24.093695],[53.493012,24.090644],[53.507823,24.091539],[53.519298,24.096869],[53.537446,24.084296],[53.548188,24.078762],[53.557384,24.076402],[53.561534,24.072577],[53.574392,24.054389],[53.581309,24.048529],[53.58961,24.047065],[53.601085,24.047187],[53.612071,24.048977],[53.629161,24.057034],[53.639415,24.054755],[53.648936,24.05036],[53.656993,24.048529],[53.687836,24.062079],[53.694591,24.066474],[53.70281,24.070502],[53.712413,24.068834],[53.722423,24.06509],[53.732107,24.06273],[53.85377,24.061998],[53.878917,24.064846],[53.889822,24.07331],[53.951182,24.103746],[54.014334,24.113267],[54.03419,24.122748],[54.055186,24.12641],[54.081554,24.137885],[54.112071,24.141791],[54.122569,24.144721],[54.135427,24.152045],[54.153656,24.165269],[54.170095,24.181098],[54.177094,24.196194],[54.187022,24.203599],[54.252778,24.221096],[54.305919,24.256781],[54.314952,24.258246],[54.323009,24.270657],[54.34197,24.269761],[54.382579,24.254584],[54.390147,24.265855],[54.427257,24.292141],[54.445974,24.316148],[54.485606,24.388332],[54.479991,24.413398],[54.483165,24.425116],[54.499278,24.432685],[54.490001,24.438381],[54.485606,24.439521],[54.485606,24.446967],[54.50115,24.445624],[54.525727,24.435207],[54.540294,24.432685],[54.533946,24.445258],[54.516856,24.462388],[54.513438,24.474311],[54.528331,24.467963],[54.544281,24.463568],[54.558604,24.457709],[54.568126,24.446967],[54.574392,24.446967],[54.5713,24.473334],[54.552501,24.481635],[54.526052,24.482856],[54.499278,24.487942],[54.440684,24.523912],[54.417328,24.528957],[54.417328,24.535102],[54.429373,24.538275],[54.441661,24.545722],[54.451915,24.556545],[54.453624,24.550198],[54.457042,24.541897],[54.465099,24.535102],[54.462413,24.545356],[54.465831,24.554348],[54.47877,24.569892],[54.485606,24.569892],[54.4935,24.542304],[54.512869,24.515286],[54.537446,24.49844],[54.56129,24.501614],[54.555186,24.504584],[54.540294,24.515855],[54.551768,24.515326],[54.573253,24.508979],[54.581798,24.50845],[54.585134,24.511949],[54.593761,24.525824],[54.598888,24.528957],[54.636404,24.597805],[54.619802,24.604315],[54.612153,24.613227],[54.615896,24.621161],[54.632986,24.624498],[54.643403,24.630561],[54.646332,24.644232],[54.65211,24.658393],[54.670584,24.666083],[54.670584,24.672309],[54.661876,24.678127],[54.657725,24.688381],[54.654796,24.700995],[54.650157,24.713853],[54.655528,24.721096],[54.648285,24.725328],[54.640473,24.732611],[54.643321,24.748684],[54.652517,24.758002],[54.691661,24.782172],[54.696544,24.788886],[54.701345,24.798285],[54.707042,24.8039],[54.737804,24.79092],[54.739431,24.789618],[54.754161,24.792426],[54.768565,24.801459],[54.773611,24.814765],[54.76002,24.830552],[54.868826,24.888658],[54.917735,24.920885],[54.94809,24.946438],[54.96811,24.958645],[54.992849,24.96601],[54.994965,24.966661],[54.99936,24.967963],[55.003347,24.969143],[55.00587,24.969916],[55.010753,24.972602],[55.014008,24.974351],[55.015798,24.975328],[55.017996,24.976508],[55.022227,24.978827],[55.049978,24.993394],[55.044607,25.013902],[55.077647,25.02025],[55.082286,25.016832],[55.156912,25.096747],[55.259044,25.215277],[55.264171,25.231187],[55.263357,25.24494],[55.2824,25.260688],[55.29835,25.25849],[55.313324,25.238918],[55.31837,25.225287],[55.31422,25.212063],[55.301117,25.193671],[55.328868,25.201483],[55.334239,25.219224],[55.326508,25.241197],[55.306407,25.275051],[55.303722,25.283026],[55.309255,25.291734],[55.339366,25.321438],[55.348155,25.324774],[55.363292,25.324042],[55.358653,25.336575],[55.359386,25.348578],[55.365489,25.358588],[55.376964,25.364976],[55.387055,25.357082],[55.407237,25.372748],[55.438975,25.412787],[55.44516,25.412787],[55.449555,25.400621],[55.455333,25.399888],[55.461192,25.407375],[55.465668,25.419623],[55.472504,25.412787],[55.486095,25.449937],[55.495616,25.466132],[55.506602,25.47484],[55.494151,25.48078],[55.500499,25.492987],[55.513357,25.508857],[55.520274,25.525702],[55.524669,25.542629],[55.535655,25.562405],[55.551036,25.578599],[55.568126,25.584662],[55.559581,25.568305],[55.548595,25.554877],[55.542247,25.542548],[55.548188,25.529486],[55.563731,25.523749],[55.583344,25.526842],[55.605154,25.532945],[55.626313,25.536322],[55.632579,25.544176],[55.648123,25.583157],[55.656912,25.597724],[55.683442,25.623521],[55.699474,25.634711],[55.733897,25.646796],[55.759532,25.679674],[55.770518,25.687161],[55.779552,25.688422],[55.792247,25.692043],[55.803477,25.697414],[55.80836,25.704169],[55.812836,25.706529],[55.842459,25.713813],[55.878103,25.740058],[55.932465,25.802558],[55.959727,25.823676],[55.953787,25.814602],[55.947439,25.794094],[55.937185,25.776679],[55.941254,25.770697],[55.948497,25.768948],[55.952322,25.772121],[55.954438,25.787095],[55.963715,25.815375],[55.965994,25.834215],[55.972341,25.842841],[56.014415,25.878852],[56.023204,25.889228],[56.030772,25.900865],[56.036876,25.915107],[56.041026,25.933539],[56.03419,25.933539],[56.03061,25.924262],[56.024669,25.916449],[56.016938,25.910468],[56.007579,25.906887],[56.033702,25.946438],[56.055349,25.988756],[56.073253,26.052314],[56.077397,26.061048],[56.100586,26.062855],[56.151332,26.074792],[56.162701,26.073552],[56.17841,26.035001],[56.183475,26.014537],[56.181304,25.996244],[56.17469,25.96653],[56.170555,25.87682],[56.163838,25.862454],[56.144511,25.837907],[56.139653,25.822973],[56.144097,25.805919],[56.167352,25.777704],[56.172002,25.76525],[56.164871,25.752176],[56.151952,25.743133],[56.141203,25.732694],[56.140376,25.715537],[56.145131,25.670837],[56.150815,25.658848],[56.152496,25.657961],[56.156396,25.655903],[56.179857,25.652079],[56.188849,25.645412],[56.198771,25.625259],[56.205799,25.617766],[56.221508,25.613838],[56.237528,25.616577],[56.279055,25.627446]],[[56.260625,25.331075],[56.233625,25.312526],[56.235668,25.296287],[56.23888,25.286247],[56.244887,25.277988],[56.235126,25.267476],[56.208375,25.255374],[56.206123,25.230596],[56.207625,25.220835],[56.219958,25.215258],[56.235771,25.211175],[56.252204,25.217635],[56.281763,25.23691],[56.29315,25.245846],[56.316426,25.253355],[56.344375,25.266528],[56.349123,25.294025],[56.309369,25.301328],[56.290688,25.327543],[56.260625,25.331075]]],[[[56.263026,25.249223],[56.259578,25.275982],[56.265075,25.281175],[56.273812,25.281289],[56.288328,25.271926],[56.282979,25.255476],[56.263026,25.249223]]],[[[53.656993,24.158393],[53.639496,24.160468],[53.628184,24.164211],[53.627778,24.171942],[53.643321,24.186265],[53.654633,24.192613],[53.656098,24.193427],[53.656098,24.193508],[53.680675,24.20185],[53.691173,24.206732],[53.710216,24.222317],[53.715831,24.225694],[53.72283,24.229885],[53.727143,24.231147],[53.738943,24.234687],[53.748302,24.234442],[53.76295,24.228705],[53.765147,24.228258],[53.770274,24.22724],[53.77711,24.229885],[53.801036,24.247748],[53.828624,24.25845],[53.83961,24.26435],[53.848155,24.275051],[53.853526,24.262681],[53.852306,24.259752],[53.848155,24.254584],[53.858409,24.239203],[53.863048,24.234687],[53.888601,24.219957],[53.892345,24.217841],[53.926606,24.211371],[53.93393,24.208645],[53.9546,24.200995],[53.964854,24.172593],[53.95102,24.149726],[53.920421,24.139838],[53.884613,24.141181],[53.854991,24.152167],[53.857107,24.161444],[53.849376,24.174221],[53.837413,24.177436],[53.826996,24.158393],[53.834483,24.152167],[53.807302,24.135972],[53.774669,24.130113],[53.741466,24.13349],[53.711599,24.144721],[53.694347,24.153591],[53.694184,24.153632],[53.684255,24.156724],[53.656993,24.158393]]],[[[54.190766,24.22724],[54.180837,24.245063],[54.159353,24.253811],[54.134125,24.260403],[54.112559,24.271674],[54.101573,24.297675],[54.101573,24.297756],[54.115245,24.318508],[54.136974,24.32689],[54.1421,24.322699],[54.150401,24.315985],[54.175873,24.290147],[54.188324,24.277493],[54.198904,24.253119],[54.198822,24.253079],[54.190766,24.22724]]],[[[52.574474,24.34394],[52.587169,24.3605],[52.611095,24.373236],[52.634461,24.3666],[52.645375,24.350719],[52.650855,24.324899],[52.648774,24.309516],[52.627208,24.283596],[52.608653,24.268256],[52.592154,24.253368],[52.579065,24.266259],[52.568139,24.283127],[52.556104,24.306946],[52.558239,24.326813],[52.574474,24.34394]]],[[[53.322759,24.262691],[53.308666,24.278623],[53.294504,24.279667],[53.276008,24.288666],[53.266142,24.27381],[53.228001,24.278897],[53.213838,24.280926],[53.192719,24.277004],[53.189138,24.275865],[53.186534,24.275946],[53.184093,24.281236],[53.184581,24.287014],[53.187673,24.294257],[53.191254,24.30036],[53.194347,24.302965],[53.231781,24.295559],[53.241873,24.297797],[53.267589,24.308254],[53.272716,24.312567],[53.278087,24.316148],[53.311046,24.328246],[53.329607,24.336115],[53.338327,24.33608],[53.348065,24.320162],[53.357849,24.315161],[53.36671,24.319241],[53.368907,24.330146],[53.367686,24.340888],[53.361583,24.350735],[53.399099,24.401435],[53.416759,24.412828],[53.417654,24.40705],[53.42213,24.397162],[53.423595,24.39175],[53.446788,24.37995],[53.447032,24.379828],[53.44044,24.341254],[53.427632,24.328759],[53.38834,24.312057],[53.369773,24.301218],[53.345793,24.298335],[53.331589,24.288463],[53.331542,24.277546],[53.322759,24.262691]]],[[[54.382579,24.439521],[54.334809,24.453192],[54.334809,24.46894],[54.375336,24.503607],[54.389415,24.522691],[54.396251,24.522691],[54.389415,24.501573],[54.396658,24.483466],[54.414317,24.470608],[54.451427,24.453192],[54.469737,24.436469],[54.470551,24.425035],[54.456716,24.420803],[54.430431,24.425238],[54.382579,24.439521]]],[[[54.266368,24.294501],[54.257335,24.287746],[54.247813,24.283189],[54.239268,24.281195],[54.228282,24.281399],[54.222179,24.284491],[54.205089,24.302924],[54.192393,24.311103],[54.183116,24.315009],[54.179454,24.321438],[54.184581,24.337063],[54.191905,24.346177],[54.203787,24.353746],[54.218028,24.357978],[54.232432,24.357571],[54.241222,24.340766],[54.25115,24.326565],[54.273448,24.302924],[54.266368,24.294501]]],[[[54.325857,24.373033],[54.335297,24.364],[54.336111,24.350328],[54.32545,24.321275],[54.30893,24.31387],[54.281586,24.357489],[54.279063,24.364447],[54.286143,24.365546],[54.297211,24.36286],[54.306895,24.357245],[54.311371,24.355292],[54.312673,24.359849],[54.309906,24.36518],[54.295177,24.37523],[54.292003,24.384508],[54.304861,24.385932],[54.325857,24.373033]]],[[[52.309744,24.539496],[52.332565,24.525414],[52.339238,24.501552],[52.326224,24.480646],[52.314228,24.475651],[52.299653,24.482896],[52.294444,24.489],[52.289561,24.491604],[52.283214,24.497016],[52.282338,24.510402],[52.291028,24.521364],[52.298621,24.533317],[52.309744,24.539496]]]]}},{"type":"Feature","properties":{"ADMIN":"Switzerland","NAME":"Switzerland","ADM0_A3":"CHE","ISO_A3":"CHE","ISO_A3_EH":"CHE","CONTINENT":"Europe","SUBREGION":"Western Europe","TYPE":"Sovereign country","SOVEREIGNT":"Switzerland"},"geometry":{"type":"Polygon","coordinates":[[[10.453811,46.864427],[10.44854,46.832233],[10.444923,46.823241],[10.439032,46.816885],[10.417224,46.79885],[10.419085,46.783967],[10.426216,46.76942],[10.428696,46.755648],[10.416604,46.743014],[10.399654,46.735546],[10.395623,46.7264],[10.396554,46.715005],[10.394383,46.70082],[10.384771,46.689012],[10.373919,46.681906],[10.369165,46.672398],[10.377537,46.653277],[10.395623,46.638808],[10.438205,46.635656],[10.459082,46.623564],[10.466627,46.604288],[10.465903,46.578476],[10.457945,46.553697],[10.451833,46.546702],[10.443993,46.537729],[10.425906,46.535326],[10.354282,46.548323],[10.319452,46.546049],[10.306637,46.547496],[10.295371,46.551087],[10.289067,46.555687],[10.283796,46.560725],[10.275941,46.565531],[10.234703,46.575298],[10.230259,46.58615],[10.235737,46.606691],[10.233773,46.617982],[10.217856,46.626974],[10.192122,46.626819],[10.09745,46.608035],[10.087839,46.604392],[10.083498,46.597002],[10.071199,46.564394],[10.062931,46.556746],[10.04133,46.541863],[10.032752,46.532975],[10.031408,46.525792],[10.031201,46.503829],[10.02686,46.493184],[10.028101,46.483934],[10.030478,46.476673],[10.035335,46.471066],[10.044017,46.466984],[10.026344,46.446262],[10.042053,46.432722],[10.071405,46.424816],[10.116157,46.418822],[10.133417,46.414016],[10.140755,46.402905],[10.13321,46.381098],[10.125976,46.37438],[10.104995,46.361357],[10.09745,46.351642],[10.092386,46.338103],[10.091766,46.328956],[10.095797,46.320533],[10.104892,46.309371],[10.14613,46.280277],[10.158945,46.262449],[10.14582,46.243328],[10.117914,46.231133],[10.075746,46.220022],[10.042673,46.220487],[10.041847,46.24307],[10.031718,46.260072],[9.992237,46.284359],[9.977561,46.298105],[9.97105,46.320016],[9.970636,46.339808],[9.964022,46.356086],[9.93901,46.367455],[9.918443,46.37115],[9.899013,46.372158],[9.855398,46.366964],[9.788839,46.343296],[9.768065,46.33862],[9.755249,46.340532],[9.730858,46.350712],[9.720109,46.350893],[9.709257,46.342392],[9.707293,46.330972],[9.708844,46.319629],[9.70843,46.311748],[9.693134,46.297072],[9.674324,46.291801],[9.559705,46.292731],[9.536451,46.298622],[9.515264,46.308596],[9.502551,46.32074],[9.482604,46.35681],[9.473716,46.361874],[9.451598,46.370375],[9.444364,46.375284],[9.4424,46.380891],[9.443847,46.396136],[9.437852,46.492047],[9.434648,46.498326],[9.426794,46.497111],[9.410671,46.488895],[9.403849,46.482513],[9.400335,46.475407],[9.395478,46.469413],[9.384626,46.466416],[9.377081,46.468689],[9.351553,46.485484],[9.350829,46.497861],[9.330986,46.501504],[9.282306,46.49737],[9.263186,46.485122],[9.245823,46.461041],[9.237968,46.436547],[9.24758,46.423033],[9.260912,46.416651],[9.262876,46.406626],[9.260292,46.394017],[9.260396,46.379728],[9.273831,46.344252],[9.275175,46.331385],[9.268974,46.309371],[9.239725,46.266996],[9.224842,46.231184],[9.215747,46.221056],[9.204172,46.213563],[9.192183,46.209635],[9.181331,46.204054],[9.17575,46.194132],[9.171099,46.182609],[9.163788,46.172989],[9.163244,46.172273],[9.090587,46.138167],[9.072087,46.118892],[9.068159,46.105972],[9.07033,46.083441],[9.067126,46.071142],[9.059168,46.061789],[9.049659,46.057913],[9.027748,46.053107],[9.002117,46.03931],[8.997776,46.027941],[9.015553,45.993111],[8.982686,45.971975],[8.980516,45.969495],[8.979793,45.966911],[8.980516,45.964379],[8.982686,45.961847],[8.993435,45.95425],[9.001703,45.93606],[9.010798,45.926655],[9.020514,45.922779],[9.042321,45.919731],[9.051726,45.915545],[9.063095,45.898957],[9.059271,45.881955],[9.034363,45.848107],[9.002427,45.820718],[8.972351,45.824646],[8.939588,45.834826],[8.900004,45.826403],[8.903725,45.841802],[8.909719,45.853688],[8.91375,45.86609],[8.912096,45.883402],[8.906515,45.896476],[8.898144,45.90955],[8.88078,45.931099],[8.870962,45.947067],[8.864451,45.953424],[8.857733,45.957093],[8.800372,45.978538],[8.785076,45.982311],[8.767919,45.983086],[8.769573,45.985773],[8.773397,45.990579],[8.790967,46.018691],[8.819596,46.042927],[8.834375,46.066388],[8.80895,46.089746],[8.793861,46.093415],[8.763165,46.092898],[8.747145,46.094449],[8.739497,46.098066],[8.732159,46.107419],[8.728983,46.108233],[8.723891,46.109538],[8.71769,46.107523],[8.702187,46.097963],[8.695055,46.095172],[8.677485,46.095792],[8.630873,46.114706],[8.611546,46.119357],[8.601831,46.122819],[8.538682,46.187621],[8.51026,46.207878],[8.482665,46.217542],[8.456517,46.224828],[8.43812,46.23537],[8.427165,46.251442],[8.423237,46.275833],[8.426648,46.301568],[8.442874,46.353373],[8.446285,46.382183],[8.445768,46.412362],[8.441634,46.434945],[8.427888,46.44869],[8.399156,46.452179],[8.385907,46.450206],[8.343449,46.443885],[8.316267,46.433653],[8.294976,46.418046],[8.286605,46.40536],[8.290429,46.401122],[8.297043,46.397634],[8.297457,46.387506],[8.291462,46.378359],[8.281541,46.370116],[8.270068,46.364044],[8.24175,46.354123],[8.192554,46.309164],[8.171883,46.299191],[8.128475,46.292473],[8.106874,46.285548],[8.087341,46.271802],[8.077315,46.262035],[8.073078,46.253612],[8.076592,46.249736],[8.09995,46.235629],[8.129509,46.196044],[8.132299,46.159354],[8.110595,46.126953],[8.066877,46.100598],[8.056025,46.098066],[8.035354,46.096516],[8.025329,46.091141],[8.018197,46.080858],[8.016027,46.069385],[8.015924,46.058172],[8.010653,46.029698],[8.008792,46.027683],[7.999077,46.0128],[7.998354,46.010629],[7.985848,45.999312],[7.978717,45.995178],[7.969105,45.993111],[7.898205,45.981949],[7.883782,45.973869],[7.872917,45.959383],[7.870201,45.94037],[7.84962,45.939712],[7.848389,45.938076],[7.845288,45.927792],[7.846115,45.922573],[7.843738,45.919214],[7.831232,45.91446],[7.825444,45.914666],[7.807564,45.91849],[7.780072,45.918129],[7.732013,45.930376],[7.722195,45.929601],[7.71465,45.92712],[7.706279,45.925725],[7.69398,45.928671],[7.692533,45.931203],[7.673722,45.950323],[7.658736,45.960038],[7.643027,45.966343],[7.541121,45.984119],[7.524377,45.978073],[7.514662,45.966704],[7.503707,45.956731],[7.482726,45.954871],[7.452961,45.945879],[7.393843,45.9157],[7.361803,45.907845],[7.286666,45.913426],[7.27354,45.910274],[7.245428,45.89813],[7.183726,45.880456],[7.153547,45.876529],[7.120888,45.876116],[7.090192,45.880508],[7.066938,45.890223],[7.022083,45.92526],[7.015158,45.933321],[7.009784,45.943398],[7.002756,45.961692],[6.991283,45.982466],[6.987666,45.993111],[6.982808,45.995385],[6.915112,46.048612],[6.892375,46.055588],[6.884003,46.053211],[6.876872,46.048095],[6.869224,46.044064],[6.859715,46.044994],[6.85093,46.049645],[6.85031,46.052746],[6.852377,46.056931],[6.851964,46.064683],[6.853411,46.065665],[6.853101,46.076103],[6.851344,46.086025],[6.848553,46.085043],[6.853101,46.090211],[6.861162,46.097032],[6.86819,46.10468],[6.869224,46.112329],[6.853927,46.122612],[6.774346,46.134808],[6.765664,46.151603],[6.774863,46.185864],[6.792226,46.221676],[6.827676,46.269477],[6.804938,46.296607],[6.769488,46.322678],[6.750368,46.345518],[6.755742,46.357068],[6.782097,46.378462],[6.789229,46.395205],[6.788107,46.405008],[6.787058,46.414171],[6.777716,46.424106],[6.762667,46.42926],[6.613684,46.455899],[6.547021,46.457372],[6.482942,46.448587],[6.397676,46.408176],[6.365223,46.40244],[6.332357,46.401381],[6.301558,46.394482],[6.269105,46.375026],[6.24058,46.348955],[6.219496,46.329111],[6.214122,46.315469],[6.218256,46.305495],[6.227454,46.288494],[6.227971,46.284463],[6.237583,46.267926],[6.24182,46.263689],[6.252259,46.259916],[6.269002,46.265239],[6.27603,46.26312],[6.281198,46.240073],[6.255359,46.221107],[6.191384,46.191704],[6.140328,46.150207],[6.107875,46.138632],[6.073872,46.149174],[6.028293,46.147934],[5.982921,46.140441],[5.95884,46.130467],[5.972172,46.152171],[5.979821,46.162248],[5.982921,46.170826],[5.965248,46.186226],[5.954809,46.19992],[5.95853,46.211961],[5.982921,46.222709],[6.042866,46.24307],[6.044519,46.243432],[6.046173,46.243535],[6.048033,46.243432],[6.055888,46.241675],[6.061883,46.241158],[6.067671,46.241623],[6.089685,46.246377],[6.094026,46.253044],[6.093095,46.262294],[6.093612,46.273094],[6.100743,46.301413],[6.104051,46.309216],[6.118607,46.331771],[6.1364,46.359342],[6.135057,46.370401],[6.122861,46.385542],[6.108185,46.396497],[6.059019,46.417383],[6.054235,46.419416],[6.065707,46.427012],[6.067567,46.433601],[6.0655,46.440371],[6.0655,46.447993],[6.064777,46.451068],[6.0624,46.455202],[6.060229,46.459904],[6.060229,46.46502],[6.064157,46.471118],[6.075525,46.479593],[6.110355,46.520831],[6.145702,46.55163],[6.121517,46.570285],[6.118417,46.583463],[6.131853,46.595607],[6.266315,46.680356],[6.337938,46.707409],[6.34786,46.71317],[6.374215,46.733609],[6.407391,46.745701],[6.417933,46.751101],[6.429199,46.760816],[6.433023,46.76911],[6.432609,46.785983],[6.425168,46.791615],[6.419897,46.796525],[6.417107,46.802157],[6.418554,46.807015],[6.434263,46.839545],[6.441188,46.848149],[6.443118,46.851455],[6.446769,46.857709],[6.448422,46.871559],[6.445219,46.882617],[6.431886,46.900032],[6.427752,46.909076],[6.442635,46.944164],[6.491107,46.963388],[6.598698,46.986539],[6.665412,47.021291],[6.688253,47.043848],[6.676264,47.0624],[6.6897,47.07829],[6.699105,47.084621],[6.72422,47.09077],[6.72794,47.097126],[6.731661,47.098883],[6.746027,47.103948],[6.744787,47.121053],[6.774759,47.128184],[6.838076,47.168132],[6.840285,47.169525],[6.859302,47.190919],[6.888344,47.211305],[6.956247,47.245231],[6.952216,47.270036],[6.958624,47.290551],[6.977434,47.303729],[6.986529,47.304504],[6.991904,47.305951],[7.006476,47.319361],[7.016915,47.323521],[7.027147,47.325433],[7.036552,47.329515],[7.044303,47.340497],[7.033865,47.350651],[7.018879,47.359901],[7.003996,47.368143],[6.985599,47.362123],[6.86664,47.354165],[6.871601,47.366955],[6.884003,47.382587],[6.898783,47.395713],[6.924517,47.405996],[6.926068,47.424858],[6.952319,47.428837],[6.968546,47.435194],[6.983429,47.443798],[6.990973,47.452221],[6.986116,47.464132],[6.97578,47.477956],[6.9733,47.489092],[6.991904,47.492942],[7.000792,47.49767],[7.009784,47.499247],[7.018879,47.49767],[7.027974,47.492942],[7.053915,47.490384],[7.103731,47.496275],[7.127296,47.492942],[7.140318,47.487852],[7.142169,47.487651],[7.153651,47.486405],[7.180833,47.488265],[7.162642,47.459895],[7.168327,47.443565],[7.190031,47.434728],[7.219383,47.428476],[7.223517,47.426228],[7.226308,47.422636],[7.230339,47.419019],[7.23809,47.416797],[7.244808,47.417727],[7.282635,47.428889],[7.309093,47.432661],[7.33693,47.431854],[7.378547,47.430646],[7.388219,47.433289],[7.406349,47.438242],[7.420563,47.450857],[7.426089,47.455761],[7.429293,47.465114],[7.427639,47.470747],[7.422782,47.475424],[7.419474,47.477852],[7.41441,47.484028],[7.414307,47.490177],[7.425986,47.492503],[7.441488,47.488834],[7.445996,47.486884],[7.454511,47.483201],[7.46743,47.481909],[7.482726,47.491263],[7.484483,47.492942],[7.485827,47.495784],[7.48593,47.498394],[7.485776,47.498768],[7.484897,47.5009],[7.477765,47.507696],[7.475595,47.511726],[7.476939,47.514879],[7.482726,47.516997],[7.493062,47.515499],[7.501123,47.517307],[7.505464,47.523018],[7.505154,47.533017],[7.501743,47.532965],[7.485103,47.541595],[7.482726,47.542267],[7.520867,47.563416],[7.526341,47.566452],[7.550319,47.575495],[7.585483,47.584479],[7.586028,47.584619],[7.637032,47.594977],[7.659666,47.596579],[7.646541,47.571542],[7.635895,47.564591],[7.612337,47.564731],[7.609747,47.564746],[7.646901,47.551445],[7.661423,47.546246],[7.683438,47.544257],[7.72732,47.550423],[7.76674,47.555961],[7.78555,47.563196],[7.801467,47.576089],[7.819657,47.595339],[7.833713,47.590481],[7.898205,47.587846],[7.904303,47.583557],[7.907507,47.574177],[7.90947,47.564798],[7.912157,47.560561],[8.042279,47.560561],[8.087237,47.567382],[8.096952,47.571852],[8.101397,47.576193],[8.105427,47.581257],[8.113902,47.587846],[8.122067,47.592135],[8.143771,47.600067],[8.162065,47.603762],[8.168886,47.608646],[8.173847,47.613529],[8.179015,47.615803],[8.232965,47.621952],[8.251051,47.622004],[8.276993,47.61663],[8.288569,47.615803],[8.293943,47.611462],[8.299317,47.601824],[8.306345,47.592187],[8.316164,47.587846],[8.354094,47.581024],[8.41807,47.580766],[8.4211,47.581112],[8.448869,47.58428],[8.450109,47.589034],[8.461788,47.606139],[8.49238,47.619833],[8.522353,47.621901],[8.537752,47.612134],[8.549638,47.598594],[8.551719,47.596863],[8.560697,47.589396],[8.574133,47.592445],[8.576305,47.595023],[8.580644,47.600171],[8.581781,47.607664],[8.581264,47.614769],[8.582504,47.62159],[8.582091,47.625027],[8.579714,47.628929],[8.57806,47.633476],[8.580334,47.639005],[8.583951,47.641124],[8.589222,47.642468],[8.593563,47.642571],[8.594493,47.640969],[8.595113,47.63482],[8.601624,47.632598],[8.607309,47.656291],[8.598214,47.656885],[8.593589,47.658169],[8.582194,47.66133],[8.568241,47.662932],[8.519666,47.657351],[8.504679,47.65226],[8.49083,47.645568],[8.476051,47.640401],[8.458274,47.639884],[8.437603,47.647842],[8.411972,47.661045],[8.407011,47.661562],[8.391301,47.665464],[8.397709,47.67629],[8.395229,47.684817],[8.390991,47.692129],[8.392128,47.699519],[8.401947,47.707089],[8.427268,47.716468],[8.437913,47.723186],[8.445458,47.743185],[8.450109,47.750471],[8.463648,47.763907],[8.471503,47.76706],[8.482665,47.766853],[8.536512,47.774088],[8.551602,47.779255],[8.5423,47.795017],[8.558216,47.801166],[8.583124,47.800236],[8.601624,47.794603],[8.603175,47.787317],[8.604105,47.774398],[8.607619,47.762254],[8.617437,47.757319],[8.62984,47.762796],[8.635007,47.784604],[8.644102,47.791012],[8.657022,47.788118],[8.666633,47.778273],[8.674488,47.766698],[8.68193,47.75874],[8.692265,47.757164],[8.703324,47.758714],[8.713142,47.757422],[8.719757,47.747319],[8.71707,47.743547],[8.703737,47.730033],[8.70043,47.723496],[8.704667,47.715332],[8.712625,47.708691],[8.715106,47.701069],[8.71707,47.694558],[8.769883,47.695074],[8.761718,47.70125],[8.77071,47.720861],[8.797581,47.720034],[8.830241,47.707192],[8.856079,47.690682],[8.837682,47.687788],[8.837786,47.680838],[8.851935,47.671282],[8.852668,47.670786],[8.881711,47.656136],[8.906205,47.651795],[8.945376,47.654302],[8.981756,47.662156],[8.997673,47.673835],[9.016586,47.6789],[9.128104,47.670425],[9.183398,47.670425],[9.196937,47.656136],[9.234351,47.656162],[9.273211,47.65009],[9.547482,47.534547],[9.553059,47.516891],[9.554951,47.5109],[9.58451,47.480721],[9.621717,47.469197],[9.650346,47.452092],[9.649519,47.409717],[9.639804,47.394524],[9.601047,47.36127],[9.596396,47.352305],[9.591228,47.334683],[9.587404,47.32781],[9.553298,47.299853],[9.521155,47.262801],[9.504618,47.243732],[9.487358,47.210014],[9.484981,47.176346],[9.492629,47.15981],[9.503481,47.145392],[9.511853,47.129372],[9.51237,47.10803],[9.502861,47.094698],[9.487565,47.083949],[9.475886,47.073226],[9.477023,47.063898],[9.499554,47.059351],[9.560636,47.0524],[9.581203,47.05687],[9.59991,47.053486],[9.65231,47.05793],[9.669053,47.056199],[9.857982,47.015478],[9.856328,47.004083],[9.860566,47.001602],[9.866767,47.001938],[9.870591,46.998838],[9.870591,46.992947],[9.866457,46.983387],[9.863976,46.959925],[9.860772,46.949151],[9.862426,46.939772],[9.875138,46.927421],[9.899943,46.914398],[10.006913,46.890757],[10.045567,46.865564],[10.068098,46.856624],[10.1113,46.847116],[10.125188,46.846751],[10.13197,46.846573],[10.157808,46.851612],[10.201423,46.86683],[10.211655,46.877036],[10.214342,46.884685],[10.215169,46.893108],[10.219924,46.905769],[10.235116,46.923313],[10.251343,46.92538],[10.270773,46.921892],[10.295681,46.922693],[10.296198,46.941374],[10.313665,46.964318],[10.338883,46.98411],[10.367925,46.995505],[10.373403,46.996254],[10.378984,46.995505],[10.384255,46.993153],[10.384358,46.993153],[10.384358,46.992998],[10.394693,46.985402],[10.415571,46.962406],[10.449574,46.943906],[10.458462,46.936619],[10.463836,46.919747],[10.451434,46.88577],[10.453811,46.864427]]]}},{"type":"Feature","properties":{"ADMIN":"Netherlands","NAME":"Netherlands","ADM0_A3":"NLD","ISO_A3":"NLD","ISO_A3_EH":"NLD","CONTINENT":"Europe","SUBREGION":"Western Europe","TYPE":"Country","SOVEREIGNT":"Netherlands"},"geometry":{"type":"MultiPolygon","coordinates":[[[[7.194591,53.245022],[7.197472,53.216624],[7.198506,53.200578],[7.195405,53.184998],[7.188584,53.167789],[7.174425,53.145775],[7.171944,53.137714],[7.172668,53.125751],[7.176492,53.119394],[7.181349,53.114175],[7.18507,53.105442],[7.194372,53.033844],[7.192821,52.998006],[7.183623,52.966122],[7.161919,52.932636],[7.079857,52.854424],[7.072151,52.841317],[7.061977,52.824012],[7.053295,52.790577],[7.043993,52.682625],[7.036655,52.647382],[7.018465,52.625988],[6.982808,52.632783],[6.967719,52.636659],[6.91842,52.632189],[6.8654,52.641956],[6.770522,52.641026],[6.737035,52.634695],[6.719083,52.626759],[6.701792,52.619115],[6.710164,52.60865],[6.7082,52.599685],[6.703652,52.59139],[6.703962,52.583071],[6.71099,52.576637],[6.743753,52.559713],[6.688253,52.542582],[6.671716,52.541678],[6.684015,52.525994],[6.687529,52.50814],[6.688976,52.490518],[6.695074,52.475609],[6.714814,52.461553],[6.741169,52.453673],[6.820338,52.446826],[6.872014,52.434733],[6.90023,52.431917],[6.926481,52.432976],[6.951493,52.437472],[6.960794,52.442847],[6.966995,52.449565],[6.9733,52.451373],[7.034175,52.390783],[7.048231,52.365074],[7.039756,52.328616],[7.019705,52.300039],[7.012471,52.284949],[7.011851,52.26663],[7.020739,52.245262],[7.0266,52.238623],[7.029111,52.235779],[7.02632,52.230637],[6.981878,52.213997],[6.97113,52.206272],[6.947668,52.182811],[6.927721,52.171907],[6.88483,52.160332],[6.8654,52.1478],[6.843282,52.119998],[6.830673,52.112893],[6.771576,52.108793],[6.765871,52.108397],[6.749851,52.102867],[6.732901,52.091989],[6.72763,52.086305],[6.719465,52.073567],[6.711404,52.067288],[6.699415,52.063567],[6.688873,52.063102],[6.679881,52.060467],[6.672957,52.050054],[6.675024,52.034809],[6.69094,52.027859],[6.712851,52.023854],[6.77817,52.001271],[6.804008,51.984373],[6.809176,51.979542],[6.811656,51.972798],[6.810726,51.960576],[6.805662,51.957527],[6.798014,51.956701],[6.789849,51.951145],[6.767008,51.925514],[6.743753,51.908331],[6.716675,51.899262],[6.628153,51.897505],[6.528624,51.876421],[6.479428,51.853012],[6.462892,51.848361],[6.442531,51.848361],[6.378453,51.860117],[6.386617,51.837561],[6.382483,51.827587],[6.344966,51.821102],[6.341969,51.836682],[6.325743,51.842547],[6.287399,51.846165],[6.282851,51.849601],[6.271792,51.8619],[6.264661,51.866189],[6.256393,51.866809],[6.22518,51.862546],[6.191384,51.87115],[6.159241,51.887299],[6.126995,51.89673],[6.092992,51.88531],[6.105394,51.87947],[6.142705,51.855182],[6.156141,51.842056],[6.140018,51.844537],[6.116453,51.848283],[6.084,51.853658],[6.043279,51.846862],[6.028913,51.842108],[6.008243,51.832574],[5.988916,51.827458],[5.948091,51.822962],[5.931451,51.81565],[5.928041,51.806736],[5.950778,51.795909],[5.964111,51.776556],[5.962354,51.756351],[5.946056,51.746288],[5.940133,51.742631],[5.939306,51.731882],[5.949228,51.729376],[5.97827,51.729789],[5.989742,51.726379],[6.012067,51.715863],[6.021989,51.709506],[6.008553,51.681188],[6.031497,51.662998],[6.099193,51.644472],[6.087514,51.622096],[6.08214,51.607807],[6.086481,51.595534],[6.15304,51.538431],[6.193348,51.509338],[6.200479,51.476575],[6.205337,51.458436],[6.201719,51.438644],[6.194071,51.417379],[6.192727,51.398957],[6.207817,51.387666],[6.202029,51.378881],[6.198929,51.35697],[6.193554,51.344516],[6.183632,51.335705],[6.158208,51.324594],[6.147769,51.318161],[6.096506,51.25881],[6.075422,51.242661],[6.06519,51.231629],[6.056612,51.211707],[6.053718,51.189383],[6.060849,51.170909],[6.08431,51.162692],[6.134126,51.184215],[6.157071,51.179254],[6.149113,51.176335],[6.126272,51.164578],[6.147252,51.152254],[6.132369,51.139825],[6.075422,51.120369],[5.982921,51.074687],[5.969485,51.06492],[5.950262,51.03947],[5.937963,51.030943],[5.919566,51.029703],[5.906233,51.037403],[5.894348,51.047144],[5.880498,51.052053],[5.85249,51.042751],[5.858174,51.019342],[5.873574,50.990584],[5.874607,50.965366],[5.88825,50.967123],[5.914192,50.975236],[5.927731,50.977665],[5.94158,50.976476],[5.967832,50.970998],[6.003695,50.973737],[6.005762,50.968518],[5.999664,50.960095],[5.99584,50.951775],[5.997287,50.937357],[5.999871,50.929399],[6.007519,50.924076],[6.031084,50.914723],[6.063743,50.90754],[6.061779,50.903509],[6.056508,50.898083],[6.054648,50.891468],[6.063123,50.870901],[6.062813,50.862943],[6.056715,50.852659],[6.045553,50.844184],[6.023022,50.845425],[6.009276,50.840464],[6.000491,50.830439],[6.001421,50.821809],[6.003592,50.81261],[5.998321,50.800725],[5.983955,50.792198],[5.968762,50.794627],[5.972999,50.781811],[5.980647,50.773439],[5.990569,50.769047],[5.997081,50.762949],[5.99491,50.749927],[5.974756,50.74755],[5.902203,50.749048],[5.891288,50.751246],[5.879878,50.753544],[5.793165,50.752149],[5.782933,50.756696],[5.76247,50.771011],[5.752444,50.773439],[5.743556,50.769099],[5.732777,50.758851],[5.727846,50.754164],[5.717408,50.752821],[5.706556,50.754216],[5.688366,50.76083],[5.698701,50.783775],[5.700458,50.795557],[5.684852,50.798503],[5.663251,50.805065],[5.657432,50.807641],[5.64072,50.815039],[5.624493,50.830284],[5.622323,50.852659],[5.694463,50.903664],[5.706039,50.90661],[5.717614,50.909245],[5.722369,50.911674],[5.735288,50.923973],[5.752548,50.947227],[5.76402,50.959423],[5.754305,50.963092],[5.744693,50.963247],[5.722369,50.959423],[5.761746,50.999162],[5.777559,51.023553],[5.76402,51.035181],[5.766397,51.048436],[5.771461,51.058125],[5.779626,51.061303],[5.791305,51.054998],[5.79885,51.061484],[5.804327,51.068589],[5.811769,51.082309],[5.808978,51.08634],[5.807428,51.089389],[5.804948,51.096624],[5.815903,51.095875],[5.826652,51.096908],[5.83678,51.099492],[5.845979,51.103393],[5.823241,51.118741],[5.826445,51.130162],[5.840501,51.138921],[5.83802,51.143727],[5.829132,51.156465],[5.812079,51.157318],[5.781383,51.152409],[5.768051,51.159462],[5.747173,51.177601],[5.730844,51.18375],[5.718028,51.184603],[5.67617,51.179177],[5.659013,51.179074],[5.648161,51.183957],[5.638549,51.190907],[5.62501,51.196902],[5.568373,51.207651],[5.551407,51.216767],[5.545532,51.219924],[5.542328,51.242661],[5.535197,51.26204],[5.516696,51.277233],[5.493235,51.286535],[5.471635,51.288085],[5.451894,51.282116],[5.409933,51.263539],[5.389056,51.258707],[5.270717,51.261833],[5.239456,51.25693],[5.232993,51.255916],[5.215423,51.258733],[5.214906,51.294338],[5.197336,51.308342],[5.178836,51.309505],[5.140182,51.307386],[5.122922,51.313381],[5.118064,51.319918],[5.107832,51.341984],[5.102561,51.350665],[5.068145,51.37454],[5.061737,51.384255],[5.065251,51.405907],[5.076413,51.421901],[5.079927,51.438541],[5.06029,51.461976],[5.030318,51.47443],[5.027527,51.476807],[5.012128,51.474327],[5.006133,51.468307],[5.002723,51.459005],[4.995798,51.446706],[4.980192,51.430531],[4.957144,51.410997],[4.931926,51.395624],[4.910325,51.391903],[4.871671,51.403039],[4.853274,51.40614],[4.783304,51.407638],[4.762117,51.413375],[4.767802,51.425389],[4.779067,51.426423],[4.822682,51.413685],[4.815447,51.431074],[4.819891,51.446215],[4.826093,51.460555],[4.823922,51.475645],[4.813587,51.48412],[4.796844,51.491018],[4.778654,51.495359],[4.764184,51.496238],[4.731215,51.485618],[4.653907,51.426216],[4.643571,51.42141],[4.630136,51.418206],[4.614633,51.41756],[4.582697,51.422599],[4.553861,51.419291],[4.540632,51.420067],[4.521512,51.428645],[4.523372,51.438412],[4.531847,51.450866],[4.533191,51.467583],[4.525232,51.475929],[4.512623,51.477376],[4.483064,51.474327],[4.429424,51.461976],[4.377128,51.442882],[4.38922,51.434588],[4.387153,51.427456],[4.380642,51.419653],[4.379918,51.409525],[4.38767,51.400533],[4.410097,51.38379],[4.416195,51.373971],[4.411234,51.356737],[4.392217,51.350407],[4.345605,51.352293],[4.326278,51.356427],[4.290105,51.368752],[4.281124,51.368947],[4.261068,51.369379],[4.257091,51.372504],[4.249034,51.384223],[4.246349,51.39643],[4.246837,51.406724],[4.244884,51.414496],[4.234711,51.419013],[4.222992,51.409491],[4.20102,51.405341],[4.111095,51.406968],[4.090343,51.411282],[4.07016,51.419013],[4.015147,51.44892],[3.99879,51.453111],[3.957042,51.455797],[3.943126,51.450385],[3.913422,51.415269],[3.90211,51.404934],[3.886729,51.399807],[3.850759,51.397366],[3.837901,51.392239],[3.827159,51.391059],[3.816417,51.39411],[3.789073,51.412177],[3.72877,51.430813],[3.689708,51.454291],[3.674001,51.45539],[3.632579,51.445705],[3.610037,51.445054],[3.553396,51.453111],[3.535411,51.459215],[3.520193,51.473375],[3.506847,51.489325],[3.494802,51.500922],[3.461925,51.518988],[3.45102,51.529731],[3.447032,51.545966],[3.45753,51.55508],[3.560395,51.594631],[3.828868,51.612738],[3.851085,51.610785],[3.866059,51.605414],[3.882172,51.596096],[3.896495,51.583808],[3.905772,51.569241],[3.895274,51.566596],[3.878266,51.559394],[3.871593,51.555569],[3.871593,51.549384],[3.967296,51.543118],[4.01588,51.530829],[4.05714,51.508368],[4.070323,51.492743],[4.090017,51.458238],[4.104828,51.445705],[4.128754,51.441352],[4.180837,51.445868],[4.20045,51.439521],[4.220225,51.443549],[4.252778,51.442532],[4.263845,51.444403],[4.283214,51.447699],[4.296723,51.470526],[4.288585,51.492133],[4.267751,51.508287],[4.239757,51.5185],[4.230479,51.519558],[4.194672,51.523586],[4.153331,51.535061],[4.13795,51.535875],[4.106293,51.533515],[4.091319,51.535061],[4.067231,51.544013],[3.988129,51.590277],[4.041189,51.606024],[4.067719,51.610663],[4.157237,51.607896],[4.18336,51.602932],[4.206879,51.590522],[4.207286,51.590277],[4.202647,51.609117],[4.189952,51.616685],[4.186127,51.616807],[4.146658,51.617865],[4.135997,51.620429],[4.125987,51.624701],[4.118012,51.630683],[4.112966,51.63939],[4.109874,51.650865],[4.10963,51.662299],[4.112641,51.670803],[4.125662,51.679633],[4.142914,51.684149],[4.176931,51.685858],[4.166352,51.692694],[4.141124,51.703925],[4.071544,51.71719],[4.05714,51.730292],[4.050792,51.763495],[4.033946,51.784247],[4.009776,51.797919],[3.981456,51.810004],[3.962576,51.801215],[3.937185,51.796332],[3.911388,51.796373],[3.891856,51.792955],[3.888194,51.788886],[3.881114,51.788072],[3.871593,51.788275],[3.862315,51.816067],[3.891368,51.828274],[3.954112,51.840155],[3.962657,51.847357],[3.982188,51.848293],[4.015636,51.843573],[4.043468,51.834215],[4.047618,51.833686],[4.055024,51.834215],[4.06544,51.837104],[4.077647,51.843573],[4.070079,51.852729],[4.044607,51.874498],[4.037852,51.877916],[4.032074,51.882025],[4.029796,51.888251],[4.031993,51.896064],[4.036632,51.901557],[4.04127,51.905504],[4.043468,51.908677],[4.040212,51.924058],[4.021169,51.963324],[4.01002,51.980129],[4.015636,51.987698],[4.022472,51.994371],[4.069021,51.987942],[4.107677,51.991889],[4.141856,52.005601],[4.284679,52.112942],[4.406912,52.223456],[4.508149,52.336371],[4.568614,52.445258],[4.577322,52.473578],[4.577322,52.480943],[4.596934,52.506578],[4.639334,52.70067],[4.657074,52.75019],[4.659841,52.765286],[4.669444,52.796576],[4.711681,52.863105],[4.721365,52.895941],[4.722423,52.914496],[4.72641,52.9383],[4.733897,52.958889],[4.745453,52.967597],[4.806977,52.961819],[4.816905,52.967597],[4.824392,52.96015],[4.809418,52.929592],[4.832774,52.911322],[4.87379,52.903957],[4.913097,52.905585],[4.935802,52.913398],[4.978282,52.935696],[4.999034,52.940334],[5.03891,52.943508],[5.078136,52.954006],[5.27947,53.062934],[5.2942,53.073432],[5.312755,53.082831],[5.358897,53.089342],[5.379242,53.097357],[5.39975,53.122056],[5.427094,53.190334],[5.447439,53.220893],[5.482595,53.245551],[5.504242,53.257025],[5.541026,53.266588],[5.557872,53.278022],[5.573497,53.291653],[5.591563,53.302802],[5.611827,53.307115],[5.659679,53.311957],[5.694591,53.330064],[5.854747,53.368801],[5.890798,53.384263],[5.913748,53.385403],[5.980805,53.406073],[6.077322,53.408922],[6.186046,53.410997],[6.273936,53.412665],[6.284353,53.410549],[6.301931,53.401109],[6.311534,53.398993],[6.320079,53.400702],[6.345551,53.412665],[6.494395,53.438707],[6.730235,53.460639],[6.829112,53.450588],[6.849783,53.444892],[6.866873,53.434272],[6.900564,53.351793],[6.905772,53.350491],[6.930024,53.340074],[6.931895,53.337592],[6.936697,53.335395],[6.941661,53.330715],[6.948578,53.326077],[6.980154,53.31977],[7.02003,53.306138],[7.037771,53.309638],[7.046235,53.30386],[7.058279,53.301947],[7.070079,53.303941],[7.078624,53.309638],[7.08546,53.309638],[7.08546,53.302802],[7.077485,53.298651],[7.073497,53.29564],[7.073741,53.291327],[7.078624,53.282945],[7.08074,53.266791],[7.111095,53.256334],[7.18336,53.245103],[7.194591,53.245022]]],[[[3.349415,51.375223],[3.510916,51.407945],[3.525727,51.415595],[3.541352,51.416734],[3.604666,51.391059],[3.702159,51.373603],[3.734223,51.35578],[3.755544,51.350084],[3.795909,51.350084],[3.833995,51.343248],[3.858165,51.345445],[3.955821,51.371772],[3.969249,51.381659],[3.97462,51.401597],[3.984141,51.410468],[4.005707,51.409817],[4.029063,51.404202],[4.043468,51.398505],[4.050059,51.392239],[4.06129,51.376654],[4.07016,51.370551],[4.081309,51.36815],[4.105479,51.366116],[4.115489,51.360989],[4.121918,51.359361],[4.156505,51.357571],[4.173676,51.373725],[4.180024,51.377427],[4.199555,51.376044],[4.221491,51.368001],[4.220962,51.363817],[4.21352,51.340537],[4.207939,51.330589],[4.168562,51.29687],[4.118952,51.272401],[3.995032,51.23323],[3.949454,51.210777],[3.927026,51.206255],[3.808687,51.205325],[3.796285,51.208762],[3.781402,51.219872],[3.779748,51.230311],[3.781402,51.241421],[3.776234,51.254521],[3.757321,51.262324],[3.635054,51.287827],[3.609526,51.290436],[3.584825,51.289532],[3.545034,51.283925],[3.529014,51.283331],[3.514338,51.281031],[3.503383,51.273952],[3.501522,51.262402],[3.504106,51.249741],[3.501212,51.240284],[3.453877,51.235633],[3.421941,51.237985],[3.398798,51.244698],[3.391658,51.24677],[3.36737,51.263487],[3.353211,51.288602],[3.353934,51.311908],[3.358068,51.336713],[3.349415,51.375223]]],[[[-68.211537,12.228095],[-68.204661,12.223212],[-68.194203,12.213935],[-68.190012,12.20482],[-68.201568,12.200832],[-68.210846,12.19009],[-68.203603,12.137763],[-68.205312,12.118232],[-68.213938,12.111802],[-68.232167,12.110745],[-68.23884,12.10456],[-68.238352,12.095771],[-68.228342,12.069973],[-68.225819,12.060248],[-68.227528,12.050727],[-68.231842,12.037991],[-68.237294,12.026801],[-68.242543,12.02204],[-68.254221,12.023627],[-68.259674,12.028062],[-68.280629,12.072211],[-68.28539,12.090074],[-68.287262,12.108303],[-68.282826,12.139594],[-68.282216,12.159898],[-68.287262,12.180325],[-68.302561,12.202948],[-68.321278,12.213853],[-68.369781,12.221259],[-68.391835,12.227769],[-68.410715,12.240302],[-68.417388,12.257025],[-68.40331,12.276516],[-68.410756,12.282701],[-68.406484,12.294623],[-68.400054,12.304389],[-68.390452,12.310207],[-68.376617,12.310045],[-68.36148,12.302191],[-68.340443,12.27497],[-68.331899,12.269029],[-68.314849,12.264838],[-68.252512,12.235541],[-68.22053,12.231147],[-68.211537,12.228095]]],[[[-62.997141,17.525621],[-62.983797,17.517683],[-62.977254,17.504137],[-62.965257,17.498916],[-62.945065,17.485384],[-62.948904,17.472375],[-62.958723,17.464571],[-62.981086,17.467724],[-62.9947,17.492133],[-62.997141,17.525621]]],[[[4.036632,51.685858],[4.07838,51.678616],[4.097341,51.670233],[4.099376,51.65412],[4.089041,51.644029],[4.072602,51.636908],[4.054861,51.632636],[3.978038,51.623277],[3.960297,51.623847],[3.923106,51.632473],[3.901541,51.641995],[3.891938,51.655504],[3.88559,51.668362],[3.869802,51.676093],[3.830577,51.685858],[3.823904,51.689887],[3.817638,51.695258],[3.809255,51.69953],[3.795909,51.700141],[3.771251,51.68183],[3.765391,51.678412],[3.720551,51.676825],[3.700043,51.680609],[3.686697,51.692694],[3.689464,51.725043],[3.725841,51.739732],[3.810069,51.747301],[3.81422,51.748236],[3.830577,51.747301],[3.843761,51.742825],[3.939626,51.741156],[3.961762,51.738105],[3.978038,51.730292],[4.015391,51.701728],[4.020274,51.696479],[4.026622,51.691107],[4.036632,51.685858]]],[[[4.892589,53.111029],[4.892589,53.104804],[4.913097,53.104804],[4.906098,53.091702],[4.893077,53.076117],[4.865245,53.050198],[4.818126,53.02676],[4.795665,53.000312],[4.761974,52.99433],[4.726817,53.003079],[4.707693,53.028469],[4.713878,53.054633],[4.733653,53.084215],[4.758474,53.108466],[4.805675,53.133002],[4.829275,53.162991],[4.85434,53.18773],[4.885753,53.186713],[4.889822,53.180854],[4.8921,53.175727],[4.891368,53.170966],[4.885753,53.166205],[4.899913,53.15233],[4.910167,53.134589],[4.909923,53.118842],[4.892589,53.111029]]],[[[4.878917,53.220893],[4.921235,53.25373],[4.986501,53.289984],[5.054454,53.313788],[5.104828,53.309638],[5.104828,53.302802],[5.078136,53.302802],[5.065603,53.298489],[5.036469,53.291815],[4.95753,53.245551],[4.93572,53.225979],[4.910167,53.21247],[4.878917,53.220893]]],[[[5.423595,53.430365],[5.437022,53.436469],[5.585297,53.453599],[5.562022,53.434312],[5.533702,53.428371],[5.475434,53.426947],[5.477387,53.423529],[5.479747,53.416205],[5.4817,53.412665],[5.468598,53.408515],[5.427013,53.40644],[5.382498,53.39468],[5.346934,53.389228],[5.208344,53.352688],[5.179861,53.353095],[5.167654,53.368232],[5.178884,53.385443],[5.232432,53.396715],[5.250173,53.40644],[5.27296,53.406073],[5.407237,53.422553],[5.423595,53.430365]]],[[[5.674001,53.467922],[5.913829,53.473863],[5.9546,53.461086],[5.855642,53.447414],[5.752778,53.447414],[5.727061,53.443345],[5.678966,53.430121],[5.653575,53.433743],[5.636078,53.448676],[5.641938,53.463365],[5.658865,53.471869],[5.674001,53.467922]]],[[[6.211762,53.508857],[6.310802,53.514146],[6.338715,53.508857],[6.338715,53.502021],[6.325043,53.502021],[6.153168,53.468817],[6.133311,53.453599],[6.127452,53.459906],[6.127126,53.46308],[6.133311,53.467922],[6.122813,53.481635],[6.14796,53.494859],[6.185395,53.504869],[6.211762,53.508857]]],[[[6.441173,53.556627],[6.455089,53.558092],[6.510102,53.543606],[6.505626,53.543769],[6.501964,53.542548],[6.498871,53.539984],[6.49643,53.5362],[6.460704,53.543362],[6.443044,53.549994],[6.441173,53.556627]]],[[[-63.238433,17.646918],[-63.230295,17.64232],[-63.223704,17.629218],[-63.229482,17.618232],[-63.238393,17.614691],[-63.251332,17.623765],[-63.248931,17.640367],[-63.238433,17.646918]]]]}}]}