{"type":"FeatureCollection","name":"ne_10m_admin_0_countries_pak_PAK","features":[{"type":"Feature","properties":{"ADMIN":"Pakistan","NAME":"Pakistan","ADM0_A3":"PAK","ISO_A3":"PAK","ISO_A3_EH":"PAK","CONTINENT":"Asia","SUBREGION":"Southern Asia","TYPE":"Sovereign country","SOVEREIGNT":"Pakistan"},"geometry":{"type":"MultiPolygon","coordinates":[[[[77.800346,35.495406],[77.815332,35.47334],[77.834246,35.452152],[77.857087,35.436598],[77.883132,35.431068],[77.912691,35.44099],[77.957856,35.482073],[77.985865,35.494165],[78.044259,35.491633],[78.055628,35.452876],[78.038058,35.398099],[78.009843,35.347456],[78.001161,35.268908],[78.036404,35.194235],[78.130042,35.055432],[78.13924,35.018949],[78.148129,34.94314],[78.162185,34.908826],[78.202492,34.865728],[78.211381,34.848262],[78.273186,34.658867],[78.296027,34.624658],[78.335301,34.594375],[78.379432,34.578666],[78.607325,34.546471],[78.664583,34.526421],[78.750676,34.471282],[78.801732,34.415006],[78.839249,34.396894],[78.885861,34.385758],[78.922138,34.372296],[78.95118,34.349171],[78.95694,34.339961],[78.976192,34.309173],[78.98539,34.286358],[78.988491,34.263129],[78.985494,34.239901],[78.976192,34.217163],[78.903225,34.158123],[78.806073,34.122983],[78.730109,34.079265],[78.721117,33.994386],[78.770313,33.872352],[78.787263,33.808428],[78.794084,33.74391],[78.781372,33.552785],[78.800905,33.494236],[78.824263,33.461059],[78.915948,33.387656],[78.917694,33.386258],[78.964986,33.344254],[78.993449,33.330782],[79.023041,33.31798],[79.053278,33.307873],[79.075048,33.295743],[79.098028,33.287655],[79.125038,33.290203],[79.150213,33.292555],[79.260061,33.291776],[79.340307,33.275132],[79.420084,33.275169],[79.456096,33.250399],[79.423475,33.157825],[79.37317,33.11214],[79.381063,33.061768],[79.399273,33.026878],[79.339787,33.013257],[79.333586,32.994292],[79.378462,32.978881],[79.414089,32.972053],[79.471089,32.908959],[79.564093,32.793928],[79.613913,32.765035],[79.620673,32.728725],[79.57617,32.670646],[79.531201,32.648317],[79.515741,32.60812],[79.472113,32.565472],[79.443497,32.534773],[79.40682,32.529683],[79.379477,32.57645],[79.320466,32.592267],[79.287412,32.532579],[79.235608,32.504296],[79.215247,32.507914],[79.191166,32.50427],[79.1614,32.496467],[79.132875,32.48546],[79.112928,32.472386],[79.102902,32.449855],[79.09174,32.390556],[79.075307,32.37079],[79.066316,32.370067],[79.039651,32.375984],[79.028178,32.377095],[79.014742,32.373994],[78.989834,32.364098],[78.976192,32.361618],[78.943429,32.346373],[78.911286,32.354745],[78.881521,32.376268],[78.855682,32.400452],[78.77145,32.461663],[78.754707,32.493806],[78.73693,32.545792],[78.734966,32.560649],[78.740651,32.578684],[78.749126,32.595867],[78.750986,32.612791],[78.736827,32.629844],[78.713262,32.637518],[78.694452,32.629663],[78.664893,32.599019],[78.647736,32.585971],[78.630166,32.578013],[78.589859,32.569925],[78.447542,32.566256],[78.408165,32.558376],[78.384807,32.547549],[78.380983,32.528041],[78.358866,32.515587],[78.313391,32.471739],[78.302952,32.470654],[78.29365,32.473289],[78.282178,32.480653],[78.274013,32.491144],[78.270396,32.504166],[78.274013,32.518868],[78.281868,32.532381],[78.286519,32.545094],[78.292927,32.575402],[78.299438,32.588657],[78.304089,32.59615],[78.313391,32.605039],[78.332924,32.617906],[78.358556,32.631678],[78.368374,32.639817],[78.374679,32.648783],[78.37778,32.657335],[78.38057,32.669195],[78.384291,32.699374],[78.383361,32.714438],[78.38088,32.729295],[78.373439,32.75397],[78.370338,32.761127],[78.366617,32.76521],[78.360416,32.767613],[78.353285,32.76862],[78.333855,32.767845],[78.325173,32.766734],[78.317732,32.764667],[78.315458,32.760507],[78.317628,32.743609],[78.314321,32.735444],[78.305123,32.729475],[78.279388,32.721491],[78.268742,32.715704],[78.253859,32.697901],[78.243731,32.69294],[78.227918,32.690175],[78.208074,32.692165],[78.191538,32.69201],[78.178515,32.688754],[78.154537,32.674052],[78.131696,32.671494],[78.114643,32.667722],[78.104101,32.661857],[78.09883,32.653769],[78.093042,32.648989],[78.084051,32.645139],[78.077023,32.640463],[78.069891,32.63036],[78.059039,32.618345],[78.043226,32.611395],[78.008913,32.61031],[77.994651,32.620361],[77.988346,32.633771],[77.983178,32.648059],[77.973877,32.660358],[77.949382,32.682708],[77.93853,32.695343],[77.932329,32.710872],[77.928918,32.762445],[77.922717,32.775183],[77.910521,32.790738],[77.893468,32.802959],[77.857915,32.873007],[77.823808,32.910343],[77.765207,32.962562],[77.742159,32.986953],[77.732548,33.001578],[77.721075,33.012636],[77.71229,33.014523],[77.703299,33.013257],[77.69441,33.008089],[77.675187,33.000415],[77.67343,32.999407],[77.659994,32.986488],[77.652036,32.980468],[77.643354,32.97605],[77.624854,32.971476],[77.615759,32.968298],[77.607491,32.962407],[77.581032,32.939049],[77.566873,32.929877],[77.55354,32.923417],[77.538968,32.918353],[77.497833,32.909258],[77.477679,32.901248],[77.443986,32.894478],[77.393964,32.889931],[77.389003,32.887683],[77.384972,32.88404],[77.377737,32.872206],[77.371329,32.867038],[77.348695,32.867245],[77.219917,32.901997],[77.135788,32.92675],[77.088453,32.950211],[76.999879,33.007236],[76.956058,33.02509],[76.940141,33.034289],[76.927532,33.045864],[76.903038,33.07377],[76.848364,33.114801],[76.82945,33.125549],[76.768679,33.186812],[76.754519,33.194563],[76.739843,33.197406],[76.625949,33.189292],[76.611893,33.193917],[76.558562,33.23146],[76.542439,33.232856],[76.512157,33.217223],[76.396712,33.197716],[76.353304,33.180094],[76.294289,33.147899],[76.28106,33.136453],[76.274755,33.12679],[76.274239,33.116609],[76.270828,33.103535],[76.261733,33.086456],[76.237032,33.063486],[76.215948,33.051084],[76.194657,33.043281],[76.152799,33.032299],[76.100813,33.01305],[76.081692,33.000803],[76.075491,32.993284],[76.05141,32.969461],[75.972448,32.911041],[75.954672,32.901377],[75.943613,32.898121],[75.935965,32.903237],[75.919842,32.920265],[75.911677,32.925898],[75.903099,32.928921],[75.893797,32.930807],[75.869612,32.940005],[75.858554,32.94215],[75.846048,32.942227],[75.826411,32.938067],[75.814629,32.931789],[75.806877,32.923675],[75.803363,32.911997],[75.804913,32.898612],[75.811735,32.884298],[75.82424,32.870449],[75.858554,32.839546],[75.869612,32.827402],[75.876537,32.81761],[75.880878,32.80885],[75.886665,32.79973],[75.903305,32.781617],[75.9093,32.772703],[75.9124,32.761902],[75.913227,32.755675],[75.903409,32.736374],[75.901445,32.702862],[75.904856,32.691312],[75.924699,32.651961],[75.926043,32.641186],[75.925733,32.630567],[75.922632,32.617338],[75.920462,32.61447],[75.912917,32.610542],[75.895554,32.596848],[75.865892,32.560571],[75.867132,32.547471],[75.85504,32.526284],[75.847391,32.516749],[75.839123,32.506569],[75.828581,32.497887],[75.818039,32.494787],[75.797679,32.481118],[75.743005,32.464375],[75.736804,32.4559],[75.732566,32.437168],[75.729362,32.429623],[75.723161,32.424223],[75.705695,32.412802],[75.698253,32.406033],[75.682647,32.399806],[75.611954,32.395465],[75.5733,32.374639],[75.537953,32.345184],[75.5024,32.300587],[75.480695,32.30746],[75.474184,32.312137],[75.464779,32.317743],[75.451447,32.324022],[75.444729,32.330301],[75.442041,32.336192],[75.444419,32.353193],[75.441938,32.359756],[75.43677,32.360221],[75.422714,32.353994],[75.414136,32.34601],[75.390365,32.335494],[75.327113,32.339964],[75.298403,32.332427],[75.326906,32.312473],[75.35295,32.284387],[75.359048,32.261675],[75.34861,32.242012],[75.31657,32.210748],[75.308405,32.193902],[75.29807,32.159795],[75.294659,32.148892],[75.263344,32.150907],[75.249908,32.148892],[75.226447,32.14207],[75.195751,32.128634],[75.173116,32.109721],[75.17415,32.086828],[75.161334,32.087965],[75.13839,32.093494],[75.129812,32.090239],[75.11896,32.08104],[75.110278,32.07763],[75.102113,32.078095],[75.040825,32.09799],[75.022635,32.094683],[75.030179,32.066416],[75.020154,32.065847],[74.995556,32.067398],[74.986151,32.063212],[74.978503,32.053393],[74.974059,32.04497],[74.967858,32.037891],[74.955662,32.032206],[74.931374,32.029829],[74.908843,32.031896],[74.889103,32.028899],[74.873186,32.011691],[74.828641,32.025437],[74.811278,32.003732],[74.802493,31.968851],[74.783683,31.942858],[74.763012,31.938982],[74.698417,31.950247],[74.669995,31.904152],[74.657179,31.895677],[74.641056,31.890561],[74.565608,31.840538],[74.550415,31.826999],[74.540804,31.810876],[74.537393,31.788913],[74.53698,31.775736],[74.535119,31.771137],[74.530778,31.767829],[74.523027,31.758476],[74.521167,31.753773],[74.518273,31.741836],[74.516206,31.737392],[74.513312,31.735118],[74.505457,31.732018],[74.503287,31.730571],[74.492641,31.714551],[74.489437,31.711192],[74.499463,31.699875],[74.555583,31.612232],[74.584522,31.517509],[74.614598,31.477821],[74.617181,31.458908],[74.61191,31.440201],[74.600025,31.42413],[74.583695,31.40656],[74.571603,31.389248],[74.532225,31.303207],[74.525301,31.280211],[74.525094,31.235407],[74.509074,31.195668],[74.506387,31.175411],[74.509591,31.156084],[74.514862,31.141821],[74.523544,31.129315],[74.536773,31.115156],[74.553103,31.108955],[74.596924,31.115776],[74.616975,31.11526],[74.631961,31.107508],[74.650254,31.093142],[74.658833,31.083789],[74.600955,31.056607],[74.579458,31.042706],[74.564265,31.025032],[74.564058,31.004362],[74.548762,30.992166],[74.534809,30.97625],[74.519306,30.962452],[74.499463,30.95651],[74.477242,30.956096],[74.458535,30.953409],[74.441585,30.946174],[74.424325,30.932325],[74.41337,30.915065],[74.409132,30.901009],[74.401277,30.893103],[74.379677,30.894498],[74.353632,30.901112],[74.34247,30.901939],[74.329757,30.899614],[74.319215,30.893413],[74.31074,30.884473],[74.304022,30.874034],[74.31136,30.855947],[74.300198,30.83817],[74.279941,30.824683],[74.260201,30.819412],[74.256687,30.815278],[74.265782,30.795434],[74.266712,30.788354],[74.259167,30.781016],[74.244078,30.771249],[74.235706,30.764118],[74.215139,30.737453],[74.198809,30.724999],[74.191161,30.717041],[74.18465,30.696835],[74.170077,30.687172],[74.16677,30.67911],[74.163669,30.664899],[74.155711,30.659577],[74.132663,30.655494],[74.111476,30.646244],[74.09587,30.637149],[74.082227,30.625884],[74.067448,30.610536],[74.057112,30.591571],[74.058249,30.574466],[74.061453,30.555604],[74.057526,30.531367],[74.04409,30.518655],[74.004402,30.50894],[73.996031,30.500982],[73.98983,30.487804],[73.939083,30.426051],[73.929265,30.419075],[73.916656,30.417163],[73.899913,30.422124],[73.902083,30.415612],[73.904253,30.401453],[73.906114,30.394838],[73.887614,30.396544],[73.867666,30.387449],[73.85175,30.372669],[73.845239,30.35696],[73.842345,30.35298],[73.891644,30.329778],[73.911901,30.303784],[73.934639,30.261048],[73.948902,30.217278],[73.946831,30.204077],[73.944354,30.188288],[73.778266,30.067313],[73.739716,30.048451],[73.557815,30.012536],[73.385215,29.942308],[73.370332,29.927322],[73.327441,29.80521],[73.284756,29.683745],[73.232873,29.536596],[73.177993,29.443449],[73.1289,29.360302],[73.050869,29.228217],[72.98865,29.15463],[72.962915,29.116829],[72.930359,29.047685],[72.918164,29.032854],[72.901524,29.022622],[72.77254,28.96335],[72.658541,28.911001],[72.52563,28.84992],[72.382176,28.784006],[72.354581,28.767186],[72.28027,28.687165],[72.256499,28.645591],[72.197794,28.44488],[72.17764,28.397053],[72.149942,28.353774],[72.110978,28.317627],[71.988195,28.228097],[71.908303,28.135571],[71.896934,28.115546],[71.89156,28.097097],[71.879984,27.974909],[71.874403,27.95969],[71.860864,27.950207],[71.70139,27.906773],[71.560727,27.868533],[71.477115,27.862435],[71.397791,27.868378],[71.31144,27.861711],[71.226329,27.845356],[71.150675,27.822411],[71.027581,27.768048],[70.91379,27.717818],[70.831573,27.701463],[70.761758,27.709783],[70.710391,27.74115],[70.671738,27.791095],[70.640732,27.854787],[70.637631,27.874217],[70.64161,27.911269],[70.633187,27.93163],[70.621198,27.944135],[70.592879,27.964496],[70.559806,27.998447],[70.534898,28.015965],[70.506786,28.028962],[70.477227,28.037256],[70.456247,28.039788],[70.43692,28.035344],[70.398266,28.02165],[70.359509,28.016327],[70.341939,28.01147],[70.323852,28.000437],[70.267731,27.945272],[70.199002,27.90096],[70.189028,27.89179],[70.101953,27.81174],[70.090688,27.79355],[70.016894,27.60059],[69.993536,27.571083],[69.908063,27.497289],[69.848015,27.410369],[69.730606,27.310324],[69.666114,27.270016],[69.575577,27.188419],[69.534443,27.125581],[69.507571,27.050081],[69.48597,26.926833],[69.465093,26.80777],[69.472844,26.766584],[69.50416,26.735165],[69.659396,26.677701],[69.700221,26.653],[69.772258,26.59507],[69.815562,26.580291],[70.056064,26.589076],[70.093685,26.580394],[70.1296,26.562514],[70.158074,26.530113],[70.162931,26.493319],[70.156989,26.410947],[70.160503,26.371311],[70.157144,26.354],[70.147945,26.333226],[70.142467,26.313692],[70.144018,26.294313],[70.151614,26.254058],[70.146912,26.217419],[70.132029,26.18047],[70.078285,26.099648],[70.073893,26.083112],[70.072911,26.047455],[70.064281,25.99552],[70.064643,25.980327],[70.083246,25.929943],[70.114976,25.881729],[70.15425,25.839406],[70.195591,25.806953],[70.213988,25.786334],[70.234452,25.730989],[70.249231,25.707683],[70.264579,25.697296],[70.303698,25.684583],[70.360129,25.673473],[70.477227,25.676315],[70.516657,25.68386],[70.554432,25.698794],[70.592259,25.708819],[70.632308,25.701378],[70.653857,25.674455],[70.657475,25.63363],[70.652824,25.545884],[70.646623,25.431369],[70.654478,25.39659],[70.670394,25.375558],[70.710495,25.335871],[70.718556,25.310808],[70.723104,25.287295],[70.734886,25.267348],[70.768372,25.233086],[70.831418,25.183322],[70.848574,25.163323],[70.859891,25.139449],[70.893326,25.001886],[70.915237,24.946618],[70.943039,24.894063],[71.00319,24.808203],[71.036935,24.72074],[71.056632,24.69282],[71.063858,24.682577],[71.043343,24.669064],[70.977145,24.639686],[70.962779,24.615785],[70.954821,24.584521],[70.957767,24.556022],[70.977145,24.54039],[70.980866,24.534731],[70.981899,24.52853],[70.980504,24.521889],[70.977145,24.515068],[70.974768,24.494966],[70.973218,24.48724],[70.973114,24.479644],[70.974355,24.472202],[70.977145,24.464942],[71.00009,24.452901],[71.040087,24.446778],[71.07502,24.436417],[71.082772,24.411508],[71.073057,24.402103],[71.025101,24.38629],[71.014352,24.375206],[71.007118,24.363966],[70.996679,24.356602],[70.977145,24.357248],[70.955338,24.365904],[70.936321,24.367196],[70.917717,24.361718],[70.856532,24.323814],[70.840926,24.30583],[70.844543,24.288286],[70.857566,24.271672],[70.851468,24.264877],[70.834105,24.261285],[70.813589,24.254464],[70.776021,24.236687],[70.755453,24.231442],[70.621508,24.241157],[70.584714,24.2579],[70.567661,24.272809],[70.56022,24.287253],[70.555362,24.327018],[70.545647,24.362183],[70.546474,24.373139],[70.551952,24.379366],[70.569211,24.389882],[70.575206,24.400036],[70.562907,24.424092],[70.520946,24.424919],[70.416353,24.401948],[70.370774,24.372364],[70.353204,24.366266],[70.29853,24.363424],[70.2791,24.355078],[70.242565,24.330609],[70.222773,24.326707],[70.202205,24.325571],[70.144586,24.307897],[70.109705,24.3049],[70.097871,24.298828],[70.087174,24.28255],[70.062989,24.220306],[70.052137,24.202064],[70.015964,24.174055],[69.972039,24.165219],[69.769054,24.162557],[69.714587,24.168578],[69.670558,24.188706],[69.59232,24.264618],[69.563071,24.276762],[69.280815,24.283739],[69.206246,24.258572],[69.166713,24.253172],[69.148213,24.25666],[69.091886,24.281904],[69.067701,24.288441],[69.048477,24.285237],[69.007808,24.264567],[68.980781,24.255394],[68.962643,24.257228],[68.94869,24.270277],[68.929415,24.302368],[68.921974,24.310507],[68.913189,24.317251],[68.904197,24.320584],[68.890296,24.319473],[68.885077,24.313556],[68.883268,24.305365],[68.880116,24.297355],[68.848903,24.244025],[68.838774,24.236455],[68.819654,24.250304],[68.813815,24.30844],[68.79919,24.329085],[68.747307,24.331177],[68.725913,24.289216],[68.725551,24.208911],[68.725086,24.10406],[68.724466,23.965179],[68.646435,23.965696],[68.547836,23.966316],[68.431564,23.967143],[68.385469,23.960425],[68.353636,23.939289],[68.353843,23.94717],[68.352396,23.956549],[68.348882,23.964611],[68.342629,23.968564],[68.330433,23.966574],[68.329865,23.958151],[68.333689,23.948048],[68.335033,23.940995],[68.325989,23.927791],[68.314052,23.915906],[68.300409,23.910505],[68.286198,23.916371],[68.280049,23.925724],[68.277672,23.933501],[68.274003,23.937687],[68.263926,23.93593],[68.254934,23.929109],[68.25266,23.920091],[68.253074,23.911229],[68.251937,23.904821],[68.253746,23.90278],[68.257931,23.899473],[68.26036,23.895545],[68.256794,23.891928],[68.252867,23.891695],[68.243049,23.893426],[68.239948,23.893116],[68.23292,23.889111],[68.21504,23.881748],[68.207288,23.877019],[68.183517,23.8433],[68.183035,23.842108],[68.183116,23.843451],[68.157481,23.905097],[68.156423,23.87401],[68.157481,23.864163],[68.160167,23.857856],[68.168712,23.844794],[68.170584,23.839911],[68.166759,23.820014],[68.148692,23.780911],[68.143321,23.761135],[68.144216,23.74315],[68.154796,23.714301],[68.157481,23.696234],[68.149099,23.694525],[68.130382,23.708197],[68.102224,23.733832],[68.098888,23.709296],[68.081716,23.708686],[68.062755,23.723131],[68.053884,23.74372],[68.056977,23.750963],[68.071056,23.760647],[68.074392,23.764838],[68.073253,23.783433],[68.074392,23.788398],[68.081716,23.80565],[68.088227,23.809516],[68.102224,23.809516],[68.102224,23.815741],[68.08839,23.826077],[68.07252,23.841864],[68.059418,23.861884],[68.053884,23.88467],[68.061697,23.911282],[68.063731,23.923163],[68.047699,23.92121],[68.024181,23.935248],[68.01352,23.939276],[68.041515,23.85224],[68.053884,23.829413],[68.035655,23.792426],[68.024425,23.774604],[68.01352,23.768541],[68.007986,23.774237],[68.003429,23.785305],[68.000336,23.797309],[67.999278,23.805813],[67.994151,23.811184],[67.983165,23.809638],[67.973399,23.805243],[67.971934,23.802069],[67.961925,23.804674],[67.950857,23.808905],[67.941661,23.815863],[67.937755,23.826321],[67.934255,23.832994],[67.926036,23.834052],[67.916759,23.833645],[67.909923,23.836249],[67.904633,23.846259],[67.905935,23.85928],[67.899913,23.86758],[67.891938,23.869574],[67.883474,23.864814],[67.868907,23.850491],[67.864513,23.86579],[67.863292,23.902818],[67.855235,23.911933],[67.849132,23.889472],[67.839041,23.823391],[67.831716,23.809516],[67.802582,23.812812],[67.773204,23.821112],[67.718598,23.843695],[67.730724,23.835598],[67.741059,23.823065],[67.743663,23.808783],[67.73227,23.795233],[67.715668,23.791693],[67.693614,23.793443],[67.656586,23.802069],[67.646495,23.802883],[67.637706,23.801744],[67.631602,23.803453],[67.629242,23.812649],[67.630707,23.824774],[67.634288,23.833075],[67.638845,23.840644],[67.642914,23.850491],[67.651052,23.90705],[67.656586,23.919379],[67.656586,23.925605],[67.652029,23.925279],[67.651052,23.926907],[67.651215,23.929755],[67.650401,23.933051],[67.638031,23.91592],[67.63738,23.874254],[67.629242,23.856676],[67.614513,23.850084],[67.59962,23.854234],[67.589366,23.866523],[67.58839,23.88467],[67.574555,23.871772],[67.566091,23.876451],[67.558116,23.888658],[67.546641,23.898261],[67.532563,23.899156],[67.530121,23.891262],[67.535899,23.880032],[67.546641,23.870998],[67.491059,23.883124],[67.478526,23.891506],[67.488048,23.893052],[67.495291,23.892279],[67.502615,23.89289],[67.512543,23.898261],[67.520518,23.90705],[67.532237,23.929145],[67.540538,23.939276],[67.530528,23.935492],[67.519867,23.92829],[67.509044,23.923245],[67.498871,23.925605],[67.496918,23.935614],[67.499766,23.951646],[67.506358,23.974026],[67.463634,23.982001],[67.451182,23.987698],[67.46811,24.021959],[67.478201,24.032416],[67.492198,24.028022],[67.519867,24.045071],[67.529796,24.054918],[67.533051,24.070258],[67.509776,24.052069],[67.489106,24.054104],[67.467296,24.064154],[67.440684,24.070258],[67.383556,24.066799],[67.354015,24.070868],[67.341319,24.086371],[67.337087,24.118964],[67.326427,24.143785],[67.300304,24.186265],[67.295584,24.199205],[67.293305,24.212226],[67.292328,24.261868],[67.288422,24.269965],[67.279145,24.281236],[67.283865,24.287909],[67.289317,24.298651],[67.292817,24.302965],[67.285981,24.329576],[67.305919,24.342841],[67.336436,24.346422],[67.362478,24.34394],[67.34254,24.353827],[67.325369,24.357611],[67.28297,24.357611],[67.271658,24.369086],[67.273611,24.395087],[67.286632,24.439521],[67.280528,24.432318],[67.273611,24.426947],[67.2588,24.419094],[67.256847,24.444973],[67.246837,24.467963],[67.230724,24.488837],[67.210948,24.50845],[67.230805,24.525092],[67.226736,24.532375],[67.204112,24.535102],[67.194591,24.547268],[67.18865,24.561347],[67.185232,24.576117],[67.183604,24.590318],[67.199474,24.584784],[67.21811,24.582424],[67.236664,24.58397],[67.252615,24.590318],[67.223888,24.607164],[67.208995,24.613756],[67.19044,24.617662],[67.172699,24.615871],[67.159923,24.61225],[67.15211,24.615709],[67.149587,24.635077],[67.156993,24.662909],[67.175548,24.688707],[67.199962,24.710639],[67.22462,24.726955],[67.25294,24.740383],[67.255544,24.747992],[67.245128,24.761664],[67.232677,24.770738],[67.223806,24.769721],[67.212657,24.764716],[67.176036,24.757717],[67.167328,24.760159],[67.161632,24.781399],[67.156016,24.791571],[67.148204,24.799791],[67.139659,24.80329],[67.121837,24.801215],[67.111095,24.797756],[67.099946,24.797065],[67.081228,24.80329],[67.073741,24.795803],[67.08253,24.774156],[67.063731,24.781684],[67.02296,24.810045],[67.005056,24.813544],[66.987315,24.822211],[66.972992,24.833157],[66.965099,24.843573],[66.957693,24.843573],[66.957856,24.825426],[66.960216,24.817816],[66.965099,24.810045],[66.941173,24.812567],[66.921886,24.824286],[66.903331,24.839179],[66.882091,24.85102],[66.85377,24.85224],[66.827322,24.844143],[66.802501,24.839545],[66.779633,24.85102],[66.769298,24.847235],[66.716319,24.841539],[66.691417,24.832587],[66.679698,24.830552],[66.654145,24.839179],[66.656749,24.85871],[66.677013,24.879543],[66.704438,24.892035],[66.704438,24.898871],[66.681326,24.910549],[66.681326,24.948879],[66.697032,25.025458],[66.699555,25.085273],[66.704438,25.104315],[66.713552,25.120754],[66.73227,25.143256],[66.737966,25.159491],[66.737153,25.181098],[66.721446,25.212592],[66.71754,25.231187],[66.710216,25.239244],[66.674083,25.269029],[66.659516,25.27558],[66.648285,25.283189],[66.595225,25.330227],[66.56072,25.349677],[66.547862,25.365627],[66.553722,25.385443],[66.579275,25.379381],[66.591156,25.399604],[66.587087,25.426215],[66.56422,25.439439],[66.550548,25.457099],[66.541677,25.492174],[66.531016,25.518134],[66.512706,25.508368],[66.51059,25.512926],[66.507335,25.517564],[66.50587,25.52204],[66.492849,25.518052],[66.486583,25.525621],[66.482921,25.538235],[66.477875,25.549302],[66.444102,25.582506],[66.437022,25.597724],[66.41212,25.590562],[66.387706,25.592434],[66.372569,25.603909],[66.375499,25.625678],[66.358653,25.614488],[66.338552,25.6081],[66.303233,25.60456],[66.29127,25.605943],[66.270518,25.61164],[66.258149,25.612006],[66.254242,25.609605],[66.248383,25.604682],[66.239757,25.599921],[66.203949,25.593207],[66.183442,25.58161],[66.167166,25.566067],[66.155772,25.549302],[66.13738,25.513821],[66.131602,25.508368],[66.12086,25.504584],[66.10963,25.495429],[66.099946,25.484361],[66.094412,25.47484],[66.121104,25.475165],[66.20045,25.48786],[66.213064,25.49136],[66.223643,25.499498],[66.238455,25.515815],[66.241547,25.518459],[66.245128,25.520413],[66.249685,25.521633],[66.255138,25.52204],[66.2588,25.524848],[66.258311,25.531399],[66.256847,25.538479],[66.258149,25.543118],[66.279145,25.549994],[66.309337,25.554023],[66.336436,25.553371],[66.348318,25.54621],[66.352712,25.535549],[66.363536,25.530341],[66.376964,25.527045],[66.38852,25.52204],[66.397146,25.512885],[66.411957,25.491116],[66.423188,25.481024],[66.437266,25.491278],[66.456228,25.496039],[66.475841,25.493313],[66.492198,25.481024],[66.45753,25.453762],[66.497895,25.430487],[66.511567,25.414211],[66.498383,25.398505],[66.483897,25.400539],[66.465505,25.411607],[66.437022,25.433254],[66.359548,25.465237],[66.31186,25.474921],[66.278656,25.467353],[66.251801,25.472886],[66.219493,25.464911],[66.187022,25.452948],[66.15919,25.446926],[66.069021,25.446234],[66.004649,25.429633],[65.92449,25.418606],[65.881521,25.419623],[65.858409,25.417548],[65.823985,25.402248],[65.800304,25.395819],[65.765391,25.377997],[65.724376,25.371161],[65.671641,25.347398],[65.65211,25.344468],[65.629731,25.34691],[65.488129,25.383124],[65.467784,25.385443],[65.446056,25.381008],[65.422862,25.372382],[65.400727,25.366685],[65.382335,25.371161],[65.386974,25.37641],[65.395356,25.392279],[65.362804,25.39057],[65.336192,25.385321],[65.313243,25.376858],[65.292328,25.364976],[65.259776,25.380439],[65.23227,25.370673],[65.211111,25.347846],[65.187999,25.311021],[65.180186,25.303656],[65.170177,25.299465],[65.155284,25.296088],[65.143403,25.295885],[65.118012,25.301947],[65.08961,25.305569],[65.058849,25.314521],[65.042003,25.316596],[64.980642,25.316596],[64.920665,25.327053],[64.889659,25.328355],[64.861095,25.316596],[64.839122,25.325344],[64.807302,25.328518],[64.744395,25.324042],[64.718516,25.314399],[64.695974,25.297593],[64.678559,25.276801],[64.66863,25.255113],[64.662771,25.229071],[64.663341,25.217027],[64.66863,25.206732],[64.679861,25.201483],[64.6963,25.197089],[64.709158,25.19066],[64.710216,25.179389],[64.702322,25.178778],[64.65504,25.165717],[64.640636,25.166571],[64.615245,25.173163],[64.600352,25.173163],[64.626964,25.211615],[64.627696,25.228461],[64.610606,25.251695],[64.593028,25.261298],[64.56544,25.27025],[64.53712,25.275865],[64.518403,25.27558],[64.506602,25.266913],[64.492035,25.245673],[64.480235,25.241441],[64.46754,25.240383],[64.448009,25.235745],[64.439301,25.234605],[64.417491,25.240912],[64.382823,25.27147],[64.360688,25.283026],[64.318207,25.292304],[64.275076,25.296088],[64.265798,25.298651],[64.252778,25.311591],[64.24464,25.316596],[64.18393,25.318671],[64.094493,25.335883],[64.094737,25.349921],[64.103689,25.367865],[64.106944,25.385443],[64.101736,25.390855],[64.092296,25.395982],[64.083507,25.40351],[64.0796,25.416205],[64.083751,25.426744],[64.093761,25.431789],[64.106212,25.433254],[64.117442,25.433254],[64.14088,25.42886],[64.15089,25.432115],[64.155284,25.446926],[64.150727,25.451402],[64.140636,25.453355],[64.127289,25.453762],[64.081554,25.443752],[64.056488,25.441718],[64.045421,25.450344],[63.989594,25.425442],[63.976573,25.412787],[63.991384,25.416653],[63.997081,25.419623],[64.004242,25.402045],[64.011729,25.397284],[64.021495,25.402737],[64.035167,25.416205],[64.048839,25.41649],[64.061697,25.399156],[64.0796,25.364976],[64.066742,25.346259],[64.059744,25.34455],[64.042003,25.344468],[64.004893,25.339016],[63.987071,25.338324],[63.969737,25.344468],[63.944102,25.334906],[63.906586,25.341213],[63.804942,25.374986],[63.737804,25.385321],[63.669932,25.383612],[63.604666,25.374416],[63.57252,25.364976],[63.554373,25.356187],[63.537608,25.344468],[63.510509,25.316596],[63.495779,25.291409],[63.485199,25.284329],[63.469493,25.289252],[63.474132,25.273139],[63.4817,25.260159],[63.511974,25.226711],[63.516856,25.223578],[63.518728,25.220852],[63.517914,25.214179],[63.515391,25.206855],[63.511729,25.200263],[63.506602,25.195502],[63.500499,25.193671],[63.468761,25.199042],[63.411143,25.22248],[63.376964,25.227769],[63.308116,25.220364],[63.291352,25.222805],[63.244151,25.241441],[63.178477,25.258043],[63.144054,25.260932],[63.113129,25.255113],[63.050955,25.224189],[63.027843,25.220364],[62.942393,25.227769],[62.770518,25.261908],[62.604959,25.265997],[62.527479,25.264188],[62.477179,25.259064],[62.465017,25.23725],[62.467621,25.223538],[62.489431,25.214179],[62.469493,25.206732],[62.444347,25.213935],[62.413829,25.206529],[62.385265,25.19245],[62.365896,25.179389],[62.354747,25.16942],[62.34311,25.155463],[62.336192,25.139838],[62.339122,25.124742],[62.35199,25.112829],[62.373222,25.108394],[62.387243,25.101575],[62.381052,25.087572],[62.339713,25.087399],[62.289954,25.090016],[62.256055,25.098627],[62.280284,25.116604],[62.283946,25.11994],[62.287771,25.12226],[62.290782,25.124742],[62.299327,25.128811],[62.308279,25.12816],[62.315278,25.130194],[62.318126,25.141832],[62.303977,25.166923],[62.297479,25.185133],[62.275184,25.19989],[62.254222,25.212032],[62.225792,25.214054],[62.191809,25.220081],[62.145193,25.218411],[62.102712,25.205146],[62.080031,25.197152],[62.068045,25.178142],[62.058989,25.161636],[62.07309,25.15058],[62.077828,25.127713],[62.088902,25.118422],[62.097179,25.107123],[62.075551,25.100749],[62.035841,25.103044],[61.98911,25.108074],[61.929498,25.109563],[61.881114,25.103013],[61.869884,25.083889],[61.866384,25.075426],[61.857432,25.06684],[61.847341,25.037909],[61.835216,25.038398],[61.814853,25.02618],[61.790478,25.017763],[61.754868,25.013467],[61.729551,25.021783],[61.720064,25.037436],[61.725759,25.058905],[61.73585,25.069525],[61.728526,25.083075],[61.732432,25.09162],[61.749522,25.104315],[61.76002,25.115383],[61.762706,25.121975],[61.763845,25.134996],[61.766775,25.145657],[61.780121,25.162543],[61.783702,25.173163],[61.783051,25.187974],[61.779552,25.191067],[61.773692,25.188422],[61.766856,25.186225],[61.763927,25.184272],[61.755138,25.175605],[61.749522,25.173163],[61.744314,25.174954],[61.73113,25.184068],[61.725352,25.186225],[61.713634,25.188056],[61.70753,25.192206],[61.702485,25.197008],[61.694184,25.200507],[61.682791,25.201646],[61.650157,25.200507],[61.634125,25.203925],[61.624197,25.204413],[61.612478,25.200507],[61.588227,25.202094],[61.620042,25.285486],[61.626036,25.36977],[61.633064,25.469299],[61.639059,25.554927],[61.643193,25.613321],[61.646604,25.627687],[61.652495,25.637299],[61.667171,25.650477],[61.673475,25.65828],[61.676369,25.6928],[61.665311,25.732384],[61.66035,25.769178],[61.681434,25.795481],[61.702621,25.80008],[61.721948,25.799667],[61.739311,25.803284],[61.754504,25.819975],[61.760085,25.837597],[61.770627,25.907412],[61.783236,25.990611],[61.792745,26.052829],[61.800703,26.106625],[61.809901,26.167448],[61.818376,26.198454],[61.832949,26.225377],[61.857133,26.242379],[61.977746,26.273178],[62.013661,26.294624],[62.032265,26.302892],[62.05278,26.308576],[62.094173,26.314829],[62.103268,26.325113],[62.106886,26.349711],[62.123835,26.373999],[62.161456,26.369503],[62.205898,26.355343],[62.243415,26.350641],[62.265119,26.360976],[62.26424,26.375187],[62.254474,26.393584],[62.248996,26.416528],[62.256127,26.428931],[62.287546,26.456629],[62.297882,26.474044],[62.296952,26.480245],[62.293127,26.485878],[62.29013,26.492441],[62.291991,26.501226],[62.298295,26.508771],[62.306977,26.51368],[62.32651,26.520656],[62.334675,26.524842],[62.347594,26.533317],[62.355863,26.536624],[62.365268,26.537503],[62.386352,26.536624],[62.396687,26.539053],[62.402475,26.543807],[62.41064,26.55683],[62.418495,26.562307],[62.428003,26.564788],[62.595331,26.580704],[62.615795,26.587112],[62.624115,26.592952],[62.632022,26.600393],[62.6406,26.605147],[62.651349,26.603183],[62.662511,26.598274],[62.671037,26.597706],[62.70194,26.60401],[62.71057,26.606904],[62.718011,26.610522],[62.724729,26.615121],[62.735064,26.632226],[62.742712,26.641321],[62.753564,26.644163],[62.821674,26.642613],[62.900016,26.640907],[62.990449,26.638892],[63.029413,26.633518],[63.068894,26.632536],[63.09804,26.638375],[63.1076,26.6376],[63.11623,26.634034],[63.123464,26.629435],[63.131268,26.625818],[63.141344,26.625404],[63.163772,26.645093],[63.174314,26.685039],[63.182272,26.83025],[63.189559,26.846011],[63.206043,26.853711],[63.246661,26.85955],[63.261647,26.871746],[63.264851,26.890039],[63.25648,26.906162],[63.243974,26.92244],[63.234982,26.941147],[63.229918,27.05406],[63.231365,27.065843],[63.235602,27.075868],[63.246248,27.089459],[63.249968,27.099536],[63.260924,27.115607],[63.280561,27.123203],[63.30242,27.123358],[63.319628,27.117312],[63.285573,27.184647],[63.271259,27.203405],[63.260614,27.213792],[63.251519,27.21896],[63.226817,27.22697],[63.215448,27.233223],[63.189559,27.254462],[63.177105,27.258441],[63.166976,27.258699],[63.112302,27.243196],[63.099435,27.242834],[63.082743,27.244385],[63.056182,27.243196],[63.003782,27.228778],[62.97784,27.225161],[62.919601,27.214877],[62.892419,27.213482],[62.860845,27.219632],[62.837384,27.231259],[62.829322,27.233636],[62.822294,27.232499],[62.808548,27.225368],[62.800642,27.225161],[62.785604,27.232499],[62.742351,27.266812],[62.758215,27.267691],[62.768086,27.274357],[62.774132,27.285519],[62.778783,27.299833],[62.780643,27.31606],[62.775682,27.326912],[62.756045,27.348099],[62.8086,27.453364],[62.814698,27.494964],[62.809323,27.547054],[62.799712,27.63927],[62.794699,27.689474],[62.786379,27.77027],[62.780281,27.829724],[62.754185,27.925842],[62.735684,27.994985],[62.751704,28.108725],[62.76638,28.211483],[62.761523,28.246442],[62.739302,28.258328],[62.575643,28.229027],[62.555437,28.240319],[62.492288,28.300703],[62.477716,28.322303],[62.471204,28.339692],[62.46428,28.349821],[62.453841,28.355686],[62.437201,28.360441],[62.420975,28.368554],[62.410743,28.380698],[62.402165,28.394108],[62.390538,28.406123],[62.362787,28.418887],[62.230702,28.442451],[62.147503,28.475266],[62.115567,28.481363],[62.049111,28.486324],[62.018829,28.494696],[61.971132,28.518984],[61.91129,28.533737],[61.89279,28.5426],[61.861164,28.574769],[61.797706,28.626574],[61.756158,28.673961],[61.653012,28.756334],[61.623969,28.78765],[61.595341,28.842685],[61.566505,28.870978],[61.561338,28.885938],[61.55896,28.902733],[61.553173,28.922138],[61.510901,29.007378],[61.502116,29.017713],[61.490954,29.02549],[61.478035,29.030658],[61.470284,29.035903],[61.46801,29.041743],[61.4708,29.047866],[61.478035,29.054326],[61.487234,29.06293],[61.490644,29.072025],[61.48775,29.080655],[61.478035,29.087476],[61.460879,29.093884],[61.45323,29.108379],[61.447959,29.125407],[61.437727,29.139618],[61.426875,29.14463],[61.417677,29.145664],[61.408582,29.148558],[61.397937,29.159074],[61.392769,29.170469],[61.390082,29.195428],[61.386981,29.206642],[61.374165,29.22385],[61.342333,29.25452],[61.332824,29.274907],[61.332824,29.294492],[61.34471,29.329529],[61.34657,29.349062],[61.337372,29.374384],[61.319802,29.385391],[61.298718,29.392651],[61.279184,29.40663],[61.196915,29.492284],[61.118677,29.573984],[61.043333,29.652429],[60.978014,29.720616],[60.925097,29.77498],[60.844379,29.858179],[60.876005,29.845518],[60.947422,29.825519],[61.030621,29.802161],[61.114026,29.778726],[61.197225,29.755343],[61.280424,29.732011],[61.363727,29.708627],[61.446926,29.685321],[61.530228,29.66186],[61.613427,29.638502],[61.696626,29.615196],[61.779929,29.591787],[61.863231,29.568351],[61.946534,29.545045],[62.029629,29.521636],[62.112983,29.498226],[62.196286,29.47492],[62.279433,29.451485],[62.374466,29.424872],[62.477509,29.407819],[62.602581,29.41807],[62.63135,29.420428],[62.680391,29.424458],[62.72938,29.428489],[62.778421,29.43252],[62.827462,29.436602],[62.876451,29.440581],[62.925544,29.444638],[62.974533,29.448643],[63.023626,29.452674],[63.072615,29.456756],[63.121604,29.460787],[63.170697,29.464766],[63.219686,29.468797],[63.268675,29.472879],[63.317768,29.47691],[63.366809,29.480941],[63.415953,29.484971],[63.568605,29.497477],[63.78792,29.46058],[63.971991,29.429574],[64.086093,29.386605],[64.113378,29.396295],[64.149758,29.458461],[64.172599,29.4843],[64.207739,29.499983],[64.477697,29.570367],[64.499477,29.570203],[64.683886,29.568816],[64.820312,29.567886],[64.986606,29.541557],[65.036371,29.540162],[65.181427,29.57711],[65.239511,29.591838],[65.297595,29.606644],[65.355783,29.621423],[65.413661,29.636177],[65.471745,29.650956],[65.529726,29.665736],[65.58781,29.680567],[65.645843,29.695346],[65.70403,29.710151],[65.762063,29.724905],[65.820147,29.739736],[65.878232,29.75449],[65.936109,29.769295],[65.994297,29.784023],[66.052381,29.798854],[66.110466,29.813634],[66.195628,29.835338],[66.27521,29.885154],[66.301772,29.915694],[66.322442,29.946545],[66.328437,29.949543],[66.336808,29.952023],[66.340529,29.956571],[66.332364,29.966079],[66.301565,29.98675],[66.260431,30.02313],[66.225239,30.04442],[66.219296,30.057856],[66.221725,30.073721],[66.236349,30.1116],[66.300893,30.225598],[66.305286,30.24477],[66.303012,30.305283],[66.321822,30.437368],[66.319393,30.457832],[66.313761,30.478296],[66.306113,30.491112],[66.281928,30.518138],[66.264926,30.557826],[66.267975,30.601389],[66.366264,30.922868],[66.375359,30.936717],[66.392309,30.944624],[66.527494,30.968343],[66.550025,30.976973],[66.643973,31.060172],[66.663093,31.083117],[66.696993,31.195823],[66.721281,31.210292],[66.759522,31.214788],[66.785308,31.23179],[66.808614,31.254734],[66.838483,31.277007],[66.905921,31.305532],[66.943283,31.314731],[67.002091,31.315867],[67.016818,31.309149],[67.023898,31.2953],[67.025965,31.273028],[67.023433,31.264863],[67.017904,31.258713],[67.013873,31.252667],[67.015268,31.244657],[67.022865,31.239386],[67.035267,31.235924],[67.058211,31.232358],[67.078468,31.232048],[67.116864,31.240316],[67.136759,31.241092],[67.156707,31.235924],[67.19319,31.218509],[67.213757,31.212256],[67.230294,31.210603],[67.282177,31.212773],[67.346204,31.20776],[67.364601,31.210706],[67.433899,31.236079],[67.493327,31.242952],[67.530224,31.256646],[67.583657,31.265225],[67.602157,31.271116],[67.665926,31.306256],[67.678949,31.316591],[67.692798,31.325221],[67.709024,31.329303],[67.749435,31.328011],[67.764731,31.334058],[67.775067,31.352764],[67.770364,31.394674],[67.734294,31.404751],[67.651147,31.395294],[67.631406,31.4001],[67.611459,31.410797],[67.59699,31.42568],[67.591099,31.464799],[67.578076,31.48211],[67.5634,31.497252],[67.556114,31.512186],[67.568981,31.52986],[67.600504,31.53048],[67.665461,31.518129],[67.696312,31.520816],[67.726698,31.53141],[67.74828,31.544392],[67.781165,31.564173],[67.842711,31.623497],[67.870668,31.635176],[67.884311,31.635641],[67.914696,31.631352],[67.955211,31.633212],[67.966063,31.638225],[67.977328,31.651868],[67.994071,31.663443],[68.046575,31.688403],[68.052259,31.695431],[68.055566,31.716566],[68.060476,31.725558],[68.093497,31.751551],[68.09834,31.759124],[68.104504,31.76876],[68.125743,31.811496],[68.138559,31.824674],[68.159126,31.825914],[68.184758,31.818214],[68.206823,31.807879],[68.2323,31.790154],[68.242635,31.776925],[68.255037,31.766383],[68.276948,31.763592],[68.316532,31.765194],[68.356065,31.762507],[68.460968,31.730467],[68.49802,31.725248],[68.515177,31.729951],[68.536829,31.741009],[68.5498,31.753515],[68.540601,31.762507],[68.521274,31.764781],[68.461433,31.763592],[68.439574,31.766589],[68.422211,31.773152],[68.418748,31.783022],[68.438179,31.796045],[68.481484,31.815682],[68.5051,31.822658],[68.527476,31.822968],[68.561065,31.811806],[68.61946,31.783487],[68.675787,31.774702],[68.688293,31.768605],[68.694907,31.756357],[68.697905,31.715946],[68.705449,31.70127],[68.731184,31.675535],[68.77728,31.618588],[68.803841,31.602568],[68.843529,31.606496],[68.906987,31.634298],[68.94099,31.643651],[68.977267,31.641481],[69.004036,31.651092],[69.040106,31.673107],[69.071628,31.69786],[69.084754,31.715791],[69.10005,31.724008],[69.114313,31.737754],[69.223764,31.881931],[69.250946,31.907046],[69.29885,31.93769],[69.301157,31.941282],[69.304793,31.94694],[69.302157,31.959911],[69.270634,32.035978],[69.251049,32.13065],[69.251876,32.15225],[69.259524,32.194522],[69.259989,32.236819],[69.266965,32.279581],[69.268102,32.301337],[69.264433,32.322369],[69.238543,32.378283],[69.228001,32.421304],[69.232859,32.462671],[69.251566,32.50055],[69.281952,32.532796],[69.302105,32.543777],[69.34355,32.55605],[69.361223,32.568478],[69.413933,32.635477],[69.426025,32.655088],[69.429126,32.667361],[69.419101,32.70046],[69.41724,32.718004],[69.414657,32.725575],[69.407732,32.729941],[69.399154,32.732964],[69.39042,32.737899],[69.383237,32.744462],[69.37807,32.752317],[69.376313,32.771877],[69.387165,32.785338],[69.421064,32.80681],[69.445559,32.835671],[69.471449,32.852234],[69.477288,32.856833],[69.48721,32.885875],[69.468503,32.994292],[69.478125,33.01135],[69.487727,33.028373],[69.514185,33.056691],[69.547517,33.075011],[69.587773,33.079532],[69.60834,33.079067],[69.640689,33.084235],[69.650198,33.081858],[69.658776,33.078421],[69.667768,33.077],[69.68601,33.080773],[69.732983,33.109298],[69.771844,33.114776],[69.838713,33.086664],[69.880933,33.089248],[69.955812,33.127695],[69.965734,33.1294],[69.994725,33.127333],[70.006869,33.131803],[70.014517,33.140769],[70.048003,33.194073],[70.059785,33.198052],[70.08366,33.191283],[70.105364,33.18981],[70.124794,33.199034],[70.294448,33.318949],[70.301579,33.35179],[70.285715,33.382873],[70.233005,33.432612],[70.227837,33.43995],[70.220447,33.456021],[70.213368,33.461344],[70.185462,33.468966],[70.177607,33.47341],[70.163758,33.488655],[70.154973,33.506612],[70.151356,33.525862],[70.153009,33.544749],[70.173473,33.607872],[70.174093,33.632108],[70.170218,33.638671],[70.162518,33.643245],[70.145981,33.649885],[70.136886,33.656293],[70.132546,33.661435],[70.126551,33.676964],[70.118128,33.716522],[70.108154,33.727296],[70.065573,33.721018],[70.011829,33.740319],[69.996478,33.742091],[69.972659,33.744841],[69.957518,33.752695],[69.947234,33.771971],[69.940103,33.791479],[69.931318,33.806439],[69.907546,33.83561],[69.898761,33.851501],[69.885429,33.889457],[69.876489,33.902557],[69.847188,33.926948],[69.841091,33.941805],[69.854216,33.956352],[69.871993,33.971519],[69.873853,33.986325],[69.870443,34.001337],[69.872613,34.017227],[69.889253,34.031206],[69.916021,34.038879],[69.969093,34.045727],[70.002838,34.043789],[70.218845,33.980692],[70.275586,33.97617],[70.309899,33.961675],[70.328193,33.957282],[70.408963,33.954414],[70.49149,33.939609],[70.521979,33.938705],[70.656183,33.95475],[70.791317,33.953562],[70.862217,33.964775],[70.879994,33.994257],[70.884334,34.007047],[70.894308,34.009372],[70.921231,34.002241],[70.939731,34.000923],[70.953994,34.004825],[70.965725,34.013816],[70.977145,34.027407],[70.997712,34.033324],[71.046702,34.041877],[71.062618,34.054253],[71.067269,34.073012],[71.063858,34.088928],[71.062773,34.10531],[71.073884,34.125257],[71.101789,34.151818],[71.108093,34.165228],[71.109489,34.189206],[71.106543,34.209386],[71.09688,34.244345],[71.097086,34.262458],[71.126387,34.332221],[71.122046,34.356819],[71.050939,34.389788],[71.01983,34.414438],[70.991511,34.443067],[70.970841,34.468879],[70.961229,34.487612],[70.955648,34.510014],[70.956991,34.532002],[70.96867,34.549727],[70.983356,34.555256],[70.985827,34.556186],[71.006963,34.556341],[71.047529,34.551122],[71.065822,34.55846],[71.076571,34.578511],[71.079878,34.602902],[71.076261,34.623624],[71.068768,34.645948],[71.070163,34.661245],[71.080601,34.672923],[71.150933,34.720311],[71.189535,34.737054],[71.203075,34.748164],[71.25563,34.810228],[71.270822,34.844283],[71.289478,34.87503],[71.324928,34.897561],[71.445239,34.937757],[71.459958,34.942674],[71.46957,34.949702],[71.476701,34.960296],[71.485383,34.983499],[71.493341,34.994041],[71.493341,34.994144],[71.493444,34.994144],[71.504297,35.000604],[71.511325,35.008717],[71.512978,35.018122],[71.5075,35.028199],[71.508947,35.072021],[71.534992,35.098582],[71.604135,35.138166],[71.62925,35.170102],[71.637932,35.189688],[71.633694,35.203124],[71.603205,35.223381],[71.547808,35.275626],[71.529825,35.300895],[71.531582,35.327922],[71.562277,35.360582],[71.61106,35.395463],[71.620879,35.410139],[71.622429,35.429621],[71.613954,35.443212],[71.600725,35.45546],[71.593422,35.464194],[71.587806,35.470911],[71.581708,35.493132],[71.586049,35.512097],[71.59287,35.530184],[71.59349,35.549356],[71.584188,35.564187],[71.567859,35.574212],[71.512771,35.596278],[71.492721,35.609559],[71.483316,35.62656],[71.495925,35.646611],[71.514012,35.665576],[71.519799,35.683766],[71.515355,35.701491],[71.502746,35.719061],[71.496132,35.724591],[71.481352,35.734099],[71.475564,35.741024],[71.47112,35.752289],[71.471017,35.761333],[71.47205,35.769962],[71.470914,35.779936],[71.464402,35.794715],[71.431019,35.843705],[71.416705,35.858846],[71.371333,35.885149],[71.360688,35.90029],[71.356399,35.933053],[71.341567,35.947264],[71.312525,35.957393],[71.28431,35.962457],[71.257438,35.971552],[71.23191,35.99398],[71.217854,36.002713],[71.181887,36.018836],[71.170932,36.027001],[71.169913,36.030802],[71.165919,36.045708],[71.175376,36.061159],[71.207622,36.087617],[71.212635,36.096816],[71.217699,36.118055],[71.223073,36.125393],[71.262296,36.146115],[71.292682,36.157897],[71.302087,36.163323],[71.309011,36.172729],[71.313972,36.194019],[71.31914,36.200582],[71.382443,36.218566],[71.402752,36.231381],[71.479078,36.300524],[71.495822,36.309619],[71.514632,36.315201],[71.53892,36.319283],[71.55835,36.327861],[71.552666,36.340987],[71.542227,36.356387],[71.547188,36.371631],[71.572303,36.391682],[71.580364,36.402327],[71.588736,36.41845],[71.600725,36.449301],[71.61044,36.457931],[71.629147,36.459533],[71.649301,36.452763],[71.706868,36.421447],[71.736324,36.395919],[71.751,36.391113],[71.766916,36.391837],[71.782626,36.396539],[71.794408,36.407598],[71.791514,36.421292],[71.774564,36.448422],[71.773221,36.480048],[71.793788,36.490745],[71.85859,36.494156],[71.874713,36.499065],[71.887632,36.508005],[71.899725,36.518341],[71.913471,36.527591],[71.960909,36.549605],[71.977033,36.563041],[71.997806,36.572446],[72.038838,36.580456],[72.054961,36.592858],[72.056304,36.601901],[72.05217,36.610376],[72.050413,36.618645],[72.059095,36.627119],[72.070877,36.632287],[72.096095,36.638902],[72.154179,36.645465],[72.171646,36.653629],[72.164618,36.670063],[72.149632,36.689338],[72.153456,36.702102],[72.169682,36.711352],[72.213607,36.726442],[72.301974,36.74272],[72.346209,36.74489],[72.387343,36.755794],[72.433129,36.753417],[72.454109,36.757964],[72.516741,36.800597],[72.565214,36.820596],[72.629602,36.832947],[72.695852,36.836719],[72.779361,36.826797],[72.867727,36.830415],[72.896873,36.836977],[72.921058,36.847364],[72.945862,36.852222],[72.976765,36.842093],[72.990511,36.841577],[73.002293,36.846124],[73.026271,36.859457],[73.042497,36.864263],[73.191842,36.877027],[73.223468,36.874339],[73.252717,36.868035],[73.267496,36.866536],[73.281862,36.867983],[73.331782,36.882091],[73.379738,36.879249],[73.445883,36.886483],[73.476889,36.882866],[73.509342,36.87868],[73.640083,36.896638],[73.709483,36.894221],[73.711128,36.894164],[73.711335,36.894157],[73.711842,36.894139],[73.772892,36.892013],[73.834077,36.882866],[73.865083,36.872582],[73.946938,36.83088],[73.976704,36.824833],[74.006366,36.815738],[74.035305,36.815583],[74.094319,36.831241],[74.103931,36.841318],[74.108789,36.875631],[74.1153,36.889532],[74.129666,36.898421],[74.145996,36.901702],[74.211728,36.895139],[74.235706,36.902167],[74.284592,36.934232],[74.368101,36.976762],[74.394043,36.994022],[74.43559,37.003221],[74.456984,37.004383],[74.476622,36.999319],[74.480342,36.996916],[74.48365,36.99397],[74.501736,36.972421],[74.521373,36.958495],[74.537393,36.962241],[74.544214,36.994022],[74.548142,37.001644],[74.549279,37.008931],[74.547418,37.015675],[74.542354,37.021669],[74.561784,37.029679],[74.62607,37.042753],[74.66245,37.054484],[74.677953,37.051693],[74.692216,37.03588],[74.719191,37.01645],[74.792571,37.015158],[74.824301,36.994125],[74.824507,36.994125],[74.853239,36.958985],[74.860887,36.946893],[74.866779,36.916559],[74.87236,36.907102],[74.885796,36.911443],[74.891997,36.920977],[74.900782,36.949916],[74.910497,36.962551],[74.924966,36.970871],[74.94233,36.976995],[74.976849,36.984281],[75.01447,36.984488],[75.100149,36.994125],[75.118546,36.991232],[75.132809,36.984695],[75.161231,36.964205],[75.195131,36.948883],[75.31347,36.928755],[75.351297,36.915784],[75.377962,36.894287],[75.394498,36.864263],[75.401423,36.825867],[75.403387,36.784784],[75.410518,36.747319],[75.431912,36.722928],[75.49258,36.720705],[75.498885,36.72763],[75.501882,36.737965],[75.50798,36.747629],[75.570508,36.766749],[75.64978,36.754037],[75.728741,36.723186],[75.790547,36.687839],[75.849768,36.644741],[75.874779,36.619471],[75.976582,36.462633],[75.976811,36.461756],[75.981083,36.445444],[75.987434,36.421189],[75.968623,36.341814],[75.96883,36.301971],[75.976582,36.286985],[76.001696,36.261457],[76.011928,36.248124],[76.014409,36.230399],[76.001593,36.222131],[75.983403,36.215413],[75.97007,36.202339],[75.96914,36.191694],[75.977408,36.173762],[75.976582,36.162755],[75.971517,36.155004],[75.964179,36.149836],[75.91457,36.123894],[75.901444,36.113611],[75.894313,36.097384],[75.899997,36.063485],[75.922321,36.031652],[75.953017,36.007261],[75.984333,35.995633],[76.061434,35.991603],[76.08996,35.978115],[76.114661,35.941787],[76.123756,35.903494],[76.127787,35.862102],[76.138122,35.826652],[76.166027,35.806239],[76.189799,35.804999],[76.237134,35.815489],[76.260389,35.817815],[76.280542,35.814249],[76.296562,35.809495],[76.311962,35.80965],[76.348859,35.830992],[76.366429,35.830889],[76.384102,35.828202],[76.403119,35.830992],[76.410354,35.836832],[76.422446,35.854298],[76.432058,35.8605],[76.44291,35.86329],[76.453969,35.864789],[76.476499,35.865254],[76.500167,35.871507],[76.537168,35.902513],[76.555461,35.897862],[76.56528,35.865461],[76.55112,35.784018],[76.570757,35.751256],[76.604244,35.735701],[76.676694,35.71379],[76.709043,35.69405],[76.732918,35.66661],[76.745424,35.655034],[76.763407,35.647076],[76.777351,35.646112],[76.782837,35.645732],[76.824592,35.647799],[76.842989,35.641288],[76.856941,35.628576],[76.880506,35.60067],[76.896422,35.589612],[76.915026,35.583152],[76.9358,35.579638],[76.976417,35.578656],[77.017552,35.584599],[77.039049,35.585013],[77.058169,35.580103],[77.071089,35.571008],[77.092276,35.547805],[77.105298,35.537987],[77.141265,35.525378],[77.177542,35.523156],[77.250819,35.530701],[77.281102,35.528013],[77.305389,35.517833],[77.352002,35.486052],[77.383731,35.471996],[77.412773,35.469412],[77.476438,35.477164],[77.512199,35.478456],[77.519608,35.477439],[77.660613,35.458095],[77.689655,35.462694],[77.716734,35.475407],[77.74743,35.49432],[77.760349,35.498093],[77.773578,35.498971],[77.800346,35.495406]]],[[[69.988332,21.2334],[69.930029,21.539309],[69.84217,21.743473],[69.851226,21.77017],[69.873548,21.790099],[69.915922,21.806644],[69.948856,21.801753],[70.049266,21.731815],[70.105747,21.731815],[70.124574,21.68517],[70.206157,21.591836],[70.300291,21.545146],[70.344221,21.574329],[70.413253,21.68517],[70.463458,21.696833],[70.614073,21.650177],[70.67683,21.568493],[70.739586,21.574329],[70.764689,21.597671],[70.764689,21.68517],[70.708208,21.743473],[70.714484,21.766788],[70.750042,21.78519],[70.783516,21.784272],[70.827445,21.76096],[70.852548,21.679339],[70.871375,21.609341],[70.846272,21.562657],[70.745862,21.475084],[70.664279,21.457563],[70.595247,21.445881],[70.567506,21.428586],[70.545041,21.399144],[70.545041,21.340703],[70.588971,21.282238],[70.620349,21.258845],[70.664279,21.270542],[70.67683,21.29978],[70.658003,21.346548],[70.695657,21.375771],[70.7408,21.392017],[70.77724,21.393301],[70.821169,21.399144],[70.833721,21.358238],[70.789791,21.258845],[70.821169,21.153533],[70.890202,21.135974],[71.065919,21.112558],[71.147503,21.100849],[71.323221,21.042289],[71.404804,21.001283],[71.480112,21.100849],[71.699743,21.021306],[71.68336,21.011461],[71.639985,20.996812],[71.583507,20.958238],[71.549571,20.951239],[71.557302,20.96601],[71.562348,20.972968],[71.569347,20.979193],[71.551117,20.973578],[71.515979,20.995233],[71.299621,20.905781],[71.318614,20.849311],[71.140636,20.765692],[71.116954,20.766913],[71.110118,20.759467],[71.09547,20.763739],[71.083263,20.756537],[71.072602,20.745673],[71.062348,20.738959],[71.044444,20.740546],[71.024181,20.744534],[71.00766,20.741604],[71.005951,20.736558],[71.000824,20.722154],[70.982432,20.71015],[70.972992,20.709621],[70.902531,20.70552],[70.827445,20.790219],[70.852548,20.860607],[70.808618,20.966126],[70.689381,21.007142],[70.588971,20.907513],[70.562174,20.799767],[70.541515,20.807847],[70.484141,20.84394],[70.463064,20.848863],[70.451427,20.855902],[70.417003,20.890448],[70.398774,20.90351],[70.336681,20.927069],[70.299978,20.958564],[70.26352,20.980414],[70.152192,21.078518],[70.054445,21.153155],[69.988332,21.2334]],[[70.369324,21.352393],[70.352622,21.323156],[70.356772,21.29978],[70.400702,21.235449],[70.431182,21.209034],[70.463458,21.200348],[70.488946,21.211188],[70.501112,21.247148],[70.482285,21.29978],[70.438356,21.352393],[70.401144,21.359742],[70.369324,21.352393]]],[[[67.375499,24.06273],[67.390391,24.049262],[67.413259,24.048774],[67.458018,24.06273],[67.477794,24.051215],[67.485362,24.048529],[67.485281,24.048489],[67.46518,24.040595],[67.460785,24.026679],[67.453949,24.013414],[67.426931,24.007514],[67.409434,24.013495],[67.393403,24.028062],[67.385427,24.040188],[67.381521,24.04621],[67.375499,24.06273]]]]}}]}